Store Name,Address,Location,Timings,Latitude,Longitude,Phone
Jawahar Nagar,"Shop No 2, UA/29 Bungalow Road, Opposite Hansraj Girls Hostel, Jawahar Nagar, Delhi, 110007",Delhi,11:00 AM to 09:30 PM,,,8929811423
Paschim Vihar,"Shop No A3/182, Ground Floor, Paschim Vihar, New Delhi, 110063",Delhi,11:00 AM to 09:30 PM,,,7428891110
"Model Town, New Delhi","Shop No 2, H4/6, Ground Floor, Model Town, New Delhi, 110009",Delhi,11:00 AM to 09:30 PM,,,7428891111
Old Rajendar Nagar,"Shop No 6/80, Ground Floor, Shankar Road, Old Rajendar Nagar, New Delhi, 110060",Delhi,11:00 AM to 09:30 PM,,,7428891112
Geeta Colony,"Shop No 11/13, Ground Floor, Geeta Colony, Delhi, 110031",Delhi,11:00 AM to 09:30 PM,,,9643075085
Vasundhra Enclave,"Vardhman Sunrise Plaza, Vasundhara Enclave, New Delhi, 110096",Delhi,11:00 AM to 09:30 PM,,,8929302372
"Sector 6, Dwarka","Shop No OG1 & OG2, Odion Plaza, Plot No 2, Sector 6 Central Market, Dwarka, New Delhi, 110075",Delhi,11:00 AM to 09:30 PM,,,7428891124
Vikaspuri,"Shop No 407, Soniapur, Block Kg 1, Near Pvr Vikaspuri, Vikaspuri, New Delhi, 110018",Delhi,11:00 AM to 09:30 PM,,,7428891125
East Patel Nagar,"Shop No 18/30, Ground Floor, East Patel Nagar, New Delhi, 110008",Delhi,11:00 AM to 09:30 PM,,,7428891126
Naraina Vihar,"Shop No E- 36 A, Block E, Near Vodafone Store, Naraina Vihar, New Delhi, 110028",Delhi,11:00 AM to 09:30 PM,,,7428891127
Sector 7 Rohini,"Property No 1, Pocket No C 9, Sector 7, Rohini, Near Rohini East Metro Station, New Delhi, 110031",Delhi,11:00 AM to 09:30 PM,,,8447731771
Dwarka Mor,"Shop No C-1/4&5, Ground Floor, Rama Park, Nawada, Uttam Nagar, Near Dwarka Mor Metro Station, New Delhi, 110059",Delhi,11:00 AM to 09:30 PM,,,8447892802
Amar Colony,"C 8 Amar Colony, Market, Amar Colony, New Delhi, 110024",Delhi,11:00 AM to 09:30 PM,,,7303157158
Sector 17 Rohini,"A 25 & 26, Ground Floor, Pocket 1, Sector 17, Rohini, Delhi, 110089",Delhi,11:00 AM to 09:30 PM,,,7065045112
SDA Market,"Shop No C 15/A, SDA Market, Near Chaayos, Delhi, 110016",Delhi,11:00 AM to 09:30 PM,,,9319372677
"Sector 9, Rohini","Shop No G9 & G10, Vikas Surya Tower, Sector 9, DC Chowk, Rohini, New Delhi, 110085",Delhi,11:00 AM to 09:30 PM,,,7428891149
Kalkaji,"Shop No H10 A, Ground Floor, Kalka Ji Main Market, New Delhi, 110019",Delhi,11:00 AM to 09:30 PM,,,7428891153
"Sector 8, RK Puram","Shop No 14, Main Market, Sector 8, Near HDFC Bank, RK Puram, New Delhi, 110022",Delhi,11:00 AM to 09:30 PM,,,7428891154
Janakpuri District Centre,"Shop No G2 B, Janak Place, Janakpuri District Centre, New Delhi, 110058",Delhi,11:00 AM to 09:30 PM,,,7428891155
Green Park Main Market,"S2B, Ground Floor, Green Park Main Market, Near Bandhan Bank, New Delhi, 110016",Delhi,11:00 AM to 09:30 PM,,,7428891156
Shalimar Bagh,"Shop No Al 58, Ground Floor, Near Al Market, Shalimar Bagh, New Delhi, 110088",Delhi,11:00 AM to 09:30 PM,,,7428891157
Durgapuri,"1449/118B, Main 100 Ft Road, Shahdara, Durgapuri, Delhi, 110093",Delhi,11:00 AM to 09:30 PM,,,8376908797
"Masoodpur, Vasant Kunj","Shop No C9, Masoodpur, Opposite Mother Dairy, Vasant Kunj, New Delhi, 110070",Delhi,11:00 AM to 09:30 PM,,,7428891161
"Lal Quarters, Krishna Nagar","Shop No B 6/1, Mandir Lane, Lal Quarters, Krishna Nagar, New Delhi, 110051",Delhi,11:00 AM to 09:30 PM,,,7428891162
Flagship Store Greater Kailash 2,"Plot No 38, Ground Floor, M Block, Greater Kailash 2, New Delhi, 110048",Delhi,11:00 AM to 09:30 PM,,,8929330350
"Hudson Lane, GTB Nagar","Shop No 2513, Ground Floor, Hudson Lane, GTB Nagar, New Delhi, 110009",Delhi,11:00 AM to 09:30 PM,,,7428891175
Pacific Mall Dwarka,"Shop No Sh/Gf/07, Ground Floor, Pacific Mall, Metro Station Line 3, Near Metro Station Entry Gate, Sector 21, Dwarka, Delhi, 110077",Delhi,11:00 AM to 09:30 PM,,,8588931408
Tilak Nagar,"D 118, Jail Road, Fateh Nagar, Tilak Nagar, Delhi, 110018",Delhi,11:00 AM to 09:30 PM,,,9999841457
Sarita Vihar,"Shop No 1, Plot No 8, LSC Pocket H Market, Sarita Vihar Metro Station, Sarita Vihar, New Delhi, 110076",Delhi,11:00 AM to 09:30 PM,,,7428891188
Rohtas Nagar Shahdara,"1/9635, Pratap Pura, Hanuman Road, Street No 5, Shahdara, Delhi, 110032",Delhi,11:00 AM to 09:30 PM,,,8929302322
Vegas Mall,"Shop No 90, Groud Floor, Block B, Vegas Mall, Near Sector 14 Metro Station, Sector 14, Dwarka, New Delhi, 110075",Delhi,11:00 AM to 09:30 PM,,,7042211409
Flagship Store Malviya Nagar,"C 3, Ground Floor, Main Market, Malviya Nagar, New Delhi, 110017",Delhi,11:00 AM to 09:30 PM,,,9958481482
"Sector 15, Rohini","Ground Floor, Block F, Plot No 40, Pocket 15, Sector 15, Rohini, New Delhi, 110089",Delhi,11:00 AM to 09:30 PM,,,8447730334
West Patel Nagar,"Shop No 4, Ground Floor, Main Market, West Patel Nagar, New Delhi, 110008",Delhi,11:00 AM to 09:30 PM,,,7065045129
Yusuf Sarai,"24 1/4, Ground Floor, Shop No 1, Besides Green Park Metro Station Gate No 4, Yusuf Sarai, New Delhi, 110016",Delhi,11:00 AM to 09:30 PM,,,7838225457
Harsh Vihar Pitam Pura,"Shop No 57, Ground Floor, Harsh Vihar, Pitam Pura, Delhi, 110034",Delhi,11:00 AM to 09:30 PM,,,8929167190
Bhera Enclave,"412 Ground Floor, Bhera Enclave, Pashchim Vihar, Delhi, 110087",Delhi,11:00 AM to 09:30 PM,,,8929261375
Kohat Enclave Pitampura,"KD 81, Shop No 3 & 4, Pitampura, Near Kohat Enclave Metro Station, Delhi, 110034",Delhi,11:00 AM to 09:30 PM,,,8929327325
Pacific Mall,"FF 08, First Floor, Pacific Mall, Tegore Garden, Near Subhash Nagar Metro Station, Najafgarh Road, New Delhi, 110018",Delhi,11:00 AM to 09:30 PM,,,9654471519
Mukherjee Nagar,"Ground Floor, Plot No 709, Dr Mukherjee Nagar, Near Batra Cinema, New Delhi, 110009",Delhi,11:00 AM to 09:30 PM,,,7428891285
Najafgarh,"Plot No 2, UGF, Roshan Mandi, Najafgarh, Delhi, 110043",Delhi,11:00 AM to 09:30 PM,,,9311773748
Nangloi Jat,"119 Ground Floor, Najafgarh Road, Nangloi, New Delhi, 110041",Delhi,11:00 AM to 09:30 PM,,,8929338425
Select City walk,"S17 A3, 2nd Floor, Select City Walk Mall, District Centre Saket, New Delhi, 110017",Delhi,11:00 AM to 09:30 PM,,,8929808413
Kirti Nagar,"Block 1, Industrial Area, Below Kirti Nagar Metro Station, Kirti Nagar, New Delhi, 110015",Delhi,11:00 AM to 09:30 PM,,,7428891335
Khanna Market,"Shop No 93, Khanna Market, Lodhi Colony, New Delhi, 110003",Delhi,11:00 AM to 09:30 PM,,,8929443816
Sector 3 Rohini,"Plot No 17, Ground Floor, Pocket F24, Sector 3, Rohini, Delhi, 110086",Delhi,11:00 AM to 09:30 PM,,,8447917937
Mahavir Enclave,"Plot No RZ-F 70, Main Palam, Dabri Road, Near ICICI Bank, Mahavir Enclave, New Delhi, 110045",Delhi,11:00 AM to 09:30 PM,,,9810501607
"Sector 7, Rohini","Shop No 1, Plot E-1/1, Sector 7, Rohini, Opposite M2K Cinema, New Delhi, 110085",Delhi,11:00 AM to 09:00 PM,,,7428891001
Mayur Vihar,"Shop No 35, Ground Floor, Pratap Nagar Market, Opposite SIMT, Mayur Vihar Phase 1, New Delhi, 110091",Delhi,11:00 AM to 09:30 PM,,,7428891003
"Sector 7, Ramphal Chowk, Dwarka","C 394, Ground Floor, Sector 7, Ramphal Chowk, Near Shiksha Bharti School, Dwarka, New Delhi, 110075",Delhi,11:00 AM to 09:30 PM,,,7428891006
Lajpat Nagar,"Shop No C7, Roxy Chowk, Next To Axis Bank, Lajpat Nagar 2, New Delhi, 110024",Delhi,11:00 AM to 09:30 PM,,,7428891050
Ramesh Nagar,"1/2 , Ground Floor, Block 1, Near Nehru Park, Ramesh Nagar, Delhi, 110015",Delhi,11:00 AM to 09:30 PM,,,8447728778
Malviya Nagar,"D 83, Shop No 3, Ground Floor, Malviya Nagar, New Delhi, 110017",Delhi,11:00 AM to 09:30 PM,,,8447928968
Janakpuri,"Shop No C1/6, Ground Floor, Opposite Mata Chanan Devi Hospital, Janakpuri, New Delhi, 110058",Delhi,11:00 AM to 09:30 PM,,,7428891058
Karol Bagh,"Shop No 1/5/30/31, Ajmal Khan Road, West Extension, Karol Bagh, New Delhi, 110005",Delhi,11:00 AM to 09:30 PM,,,8588816750
Flagship Store at Connaught Place,"K 26, Ground Floor, Opposite Pvr Plaza Cinema, Connaught Place, New Delhi, 110001",Delhi,11:00 AM to 09:30 PM,,,7428891059
Flagship Sector 7 Rohini,"Property No 1, Pocket C9, Sector 7, Rohini, New Delhi, 110085",Delhi,11:00 AM to 09:30 PM,,,8447642682
"Sector 12, Dwarka","Shop G2 & G3, Ground Floor, Plot No 11, MLU Sector 12, Opposite Gold Croft Apartments, Dwarka, New Delhi, 110075",Delhi,11:00 AM to 09:30 PM,,,7428891070
Alaknanda Market,"Shop No E 1/2, Ground Floor, Bhatia Complex, Alaknanda Market, New Delhi, 110019",Delhi,11:00 AM to 09:30 PM,,,7428891071
Laxminagar,"F 4 & 5, Vijay Block, Vikas Marg, Laxmi Nagar, Delhi, 110092",Delhi,11:00 AM to 09:30 PM,,,8826621646
Uttam Nagar,"A27, Ground Floor, Hastal Main Najafgarh Road, Uttam Nagar, New Delhi, 110059",Delhi,11:00 AM to 09:30 PM,,,8929273106
Kailash Colony,"HS 17, Ground Floor, East Side, Kailash Colony Market, New Delhi, 110048",Delhi,11:00 AM to 09:30 PM,,,7428890266
Janakpuri C4E,"Shop No 331, Ground Floor, C4E, Janakpuri, New Delhi, 110058",Delhi,11:00 AM to 09:30 PM,,,8929756455
Neb Sarai,"A95,GF, Freedom Fighter Enclave, Main Road, Neb Sarai, Delhi, 110068",Delhi,11:00 AM to 09:30 PM,,,8447725705
Bhajanpura,"F 398, Ground Floor, Khajoori Khas, Main Wazirabad Road, Bhajanpura, New Delhi, 110094",Delhi,11:00 AM to 09:30 PM,,,8929277897
Ashok Vihar,"119 A, Deep Enclave, Phase 3, Near Ambedkar Chowk, Ashok Vihar, Delhi, 110052",Delhi,11:00 AM to 09:30 PM,,,8130101670
Sector 133,"Shop No 3 & 4, Ground Floor, Paras One 33, Sector 133, Noida, Uttar Pradesh, 201304",Uttar Pradesh,11:00 AM to 09:00 PM,,,7065045166
Qaiserbagh Lucknow,"Shop No 5, Tandon Building, Kaiser Bagh, Kaiser Bagh Crossing, Lucknow, Uttar Pradesh, 226001",Uttar Pradesh,11:00 AM to 09:30 PM,,,9643081427
Ratankhand,"Cp 2/4, Crystal City Centre, Ratankhand, Sharda Nadar Yojana, Ratankhand, Lucknow, Uttar Pradesh, 226012",Uttar Pradesh,11:00 AM to 09:00 PM,,,8447745330
Vinayak Mall,"Shop No 2, Lower Ground Floor, Building No 2/205, Vinayak Mall, Diwani Crossing, Vinayak Mall, Near District Court, Diwani Crossing, Agra, Uttar Pradesh, 282002",Uttar Pradesh,11:00 AM to 09:30 PM,,,7428890294
Mathura,"Shop No 11 & 12, Ground Floor, M R Complex, Bhuteshwar Road, , Bhuteshwar Road, Mathura, Uttar Pradesh, 281004",Uttar Pradesh,11:00 AM to 09:30 PM,,,8448440319
Gomti Nagar,"1/99, Vinay Khand, Patrakaarpuram, Gomti Nagar, Gomti Nagar, Near First Cry, Lucknow, Uttar Pradesh, 226010",Uttar Pradesh,11:00 AM to 09:30 PM,,,7303446447
Bahraich,"79, Digiha, Gonda Road, Gonda Road, Near Agrasen Chowk, Bahraich, Uttar Pradesh, 271801",Uttar Pradesh,11:00 AM to 09:30 PM,,,9311773715
Sigra,"D 62/48, First Floor, Sonia Road, Sigra, Bharat Sevashram Sangh, Varanasi, Uttar Pradesh, 221010",Uttar Pradesh,11:00 AM to 09:30 PM,,,7428890035
Shaimar Garden,"Plot No 15, G1, Ground Floor, Block C, Shalimar Garden Extension 2, Sahibabad, Shalimar Garden, Ghaziabad, Uttar Pradesh, 201005",Uttar Pradesh,11:00 AM to 09:30 PM,,,7303371372
Indirapuram,"Shop No G2, Aditya Goldcrest, Vaibhav Khand, Indirapuram, , Indirapuram, Beside Narulas, Ghaziabad, Uttar Pradesh, 201014",Uttar Pradesh,11:00 AM to 09:30 PM,,,9319369533
Phoenix United Mall,"Cp 08, 1St Floor, Phoenix United Mall, Sector B, Lda Colony, Kanpur Road, Near Wildcraft, Lucknow, Uttar Pradesh, 226012",Uttar Pradesh,11:00 AM to 09:30 PM,,,7428891128
Jankipuram,"Plot No 31, 60 Feet Road, Jankipuram, , Jankipuram, Near Mulayam Tiraha, Lucknow, Uttar Pradesh, 226021",Uttar Pradesh,11:00 AM to 09:00 PM,,,9319371908
Sector 75 Noida,"Shop No 10C & 10D, Ground Floor, Block B, Spectrum Metro, Sector 75, Noida, Uttar Pradesh, 201301",Uttar Pradesh,11:00 AM to 09:30 PM,,,8929174102
Ambedkar Road,"Shop No N 21, Nehru Nagar 3, Ambedkar Road, Adjacent To Banwari Lal Restaurant, Ghaziabad, Uttar Pradesh, 201001",Uttar Pradesh,11:00 AM to 09:30 PM,,,7428891144
Garh Road,"Shop No 2, Gf,¬ Pinnacle‚ Tower, Garh Road, Garh Road, Meerut, Uttar Pradesh, 250001",Uttar Pradesh,11:00 AM to 09:00 PM,,,8447820217
Naini,"152/41, Moja Chak, Raghunath Parhana, Naini, Shankar Dhal, Prayagraj Tehsil Karchana, Naini, Near Shankar Dhal, Prayagraj, Uttar Pradesh, 211008",Uttar Pradesh,11:00 AM to 09:00 PM,,,8929280250
Mall Road,"18/183, The Mall Road, Kurswan, Mall Road, Opposite Phoolbagh, Kanpur, Uttar Pradesh, 208001",Uttar Pradesh,11:00 AM to 09:00 PM,,,8929436466
SGPGI,"Khasra No 1463, Sgpgi Market, Krishna Vihar Colony, Raibarelli Road, Eldeco Udhyan Ii, Sgpgi Market, Lucknow, Uttar Pradesh, 226014",Uttar Pradesh,11:00 AM to 09:30 PM,,,8447818451
Grand Venice Mall,"Shop No 02, Lower Ground Floor, Grand Venice Mall, Site Iv Pari Chowk, Site Iv, Pari Chowk, Greater Noida, Uttar Pradesh, 201308",Uttar Pradesh,11:00 AM to 09:30 PM,,,9582351439
Gol Market,"B 939/B, D B S Tower, Sector A, Mandir Marg, Gole Market, Lucknow, Uttar Pradesh, 226006",Uttar Pradesh,11:00 AM to 09:00 PM,,,7303242243
Sadar Bazar,"T 4 Suraj Complex, 4 Taj Road, Sadar Bazar, Sadar Bazar, Near Jio Retial Shop, Agra, Uttar Pradesh, 282001",Uttar Pradesh,11:00 AM to 09:30 PM,,,9319365057
Ashiyana,"H No K-833,¬ Ashiyana Colony, Ashiyana, Near Pizza Hut, Lucknow, Uttar Pradesh, 226012",Uttar Pradesh,11:00 AM to 09:30 PM,,,7303283284
Rathyatra,"Shop No 4, 58, 53 & 54, Shivam Complex, Rathyatra Crossing, , Rathyatra, Infront Of Kuber Complex, Varanasi, Uttar Pradesh, 221010",Uttar Pradesh,11:00 AM to 09:30 PM,,,9319375622
LuLu Mall,"Shop No H005, T5&T-Aajbb-2, Ansal Ape, Sushant Golf City, Sultanpur Road, Ansal Ape, Lulu Mall, Lucknow, Uttar Pradesh, 226030",Uttar Pradesh,11:00 AM to 09:30 PM,,,8929338626
"Sector E, Aliganj","Hig 65, Lower Ground Floor, Kapoorthala Road, Sector E, Aliganj, Opposite Keventers, Lucknow, Uttar Pradesh, 226024",Uttar Pradesh,11:00 AM to 09:30 PM,,,7428891176
Shastri Nagar,"Plot No 12/2, Ground/First Floor, Sector 2, Central Market, Shastri Nagar, Shastri Nagar, Meerut, Uttar Pradesh, 250004",Uttar Pradesh,11:00 AM to 09:00 PM,,,8929345115
Vibhuti khand,"G11, Ground Floor, Levana Cyber Heights, Vibhuti Khand, Gomti Nagar, Lucknow, Uttar Pradesh, 226010",Uttar Pradesh,11:00 AM to 09:30 PM,,,8929276236
Z Square Mall,"Shop No 16/113, G 28A, Ground Floor, Z Square Mall, M G Road, Near Bada Chauraha, Kanpur, Uttar Pradesh, 208001",Uttar Pradesh,11:00 AM to 09:30 PM,,,7428891178
Thakurganj,"439/14, Hardoi Road, Thakurganj Chowk, Thakurganj Chowk, Opposite City Montessori School, Lucknow, Uttar Pradesh, 226003",Uttar Pradesh,11:00 AM to 09:00 PM,,,8929342527
RDC Rajnagar,"Shop No 1 & 2, Advocate Chamber, , Rdc Rajnagar, Near Bikanerwala, Ghaziabad, Uttar Pradesh, 201002",Uttar Pradesh,11:00 AM to 09:30 PM,,,7428891184
"Sector 3, Vasundhara","Shop No Ug 06, Ugf, Ksn Square, Plot No 12,13,14, Sector 3, Vasundhara, Sector 3, Vasundhara, Ghaziabad, Uttar Pradesh, 201012",Uttar Pradesh,11:00 AM to 09:30 PM,,,8929347357
"Indiranagar, Lucknow","Shop No B4 & 5, Krishna Complex, Faizabad Road, Indiranagar, Bhootnath Market, Lucknow, Uttar Pradesh, 226016",Uttar Pradesh,11:00 AM to 09:30 PM,,,7428891193
Olandganj,"House No 141, Td College, Olandganj, Near Chandra Hotel, Jaunpur, Uttar Pradesh, 222002",Uttar Pradesh,11:00 AM to 09:00 PM,,,8929306572
"Phoenix United Mall, Bareilly","Shop No F 298, First Floor, Phoenix United Mall, Mahanagar Colony, Pilibhit Bypass, Bareilly, Uttar Pradesh, 243006",Uttar Pradesh,11:00 AM to 09:30 PM,,,7428891201
Civil line,"Shop No 2&3, Gks Palace, Ayub Khan Choupla Road, 63-64, Civil Lines, , Civilline, Bareilly, Uttar Pradesh, 243001",Uttar Pradesh,11:00 AM to 09:30 PM,,,8929100938
"Sector 137, Noida","Ground Floor, Shop No Blk2, Paras Tierra, Sector 137, Sector 137, Noida, Uttar Pradesh, 201305",Uttar Pradesh,11:00 AM to 09:30 PM,,,8929346615
Sector 46 Noida,"Shop No 15, Ground Floor, Gardenia Aims Glory, I Square Market, Plot No Gh 001, Sector 46, Noida, Uttar Pradesh, 201301",Uttar Pradesh,11:00 AM to 09:30 PM,,,8929543971
Flagship Store Tilak Nagar,"Gf 4/281-B, Parvati Bangla Road, Tilak Nagar, Kanpur, Uttar Pradesh, 208002",Uttar Pradesh,11:00 AM to 09:30 PM,,,8929172546
Omaxe Connaught Place Mall,"Shop No 7, Upper Ground Floor, , Omaxe Connaught Place Mall, Beta 2, Near Igl Cng Filling Station, Greater Noida, Uttar Pradesh, 201308",Uttar Pradesh,11:00 AM to 09:30 PM,,,7428891236
Sector 62,"Rn11, Ground Floor, Sector 62, Near Bank Of Maharashtra, Noida, Uttar Pradesh, 201301",Uttar Pradesh,11:00 AM to 09:30 PM,,,7290012952
Modi Nagar,"Shop No 11, 11A, 12A, Kn Mod Complex, Gt Road, Modinagar, Modinagar, Ghaziabad, Uttar Pradesh, 201204",Uttar Pradesh,11:00 AM to 09:00 PM,,,8588803142
Orderly Bazar,"Shop No S2 /363 A, Bhojubir, Ward Sikraul, Orderly Bazar, Bhojubeer, Varanasi, Uttar Pradesh, 221002",Uttar Pradesh,11:00 AM to 09:30 PM,,,9319360892
Crossing Republic,"Upper Ground-02, Plot No C-2, Nh-24, Orbit Plaza, Crossing Republic, Next To More Store, Ghaziabad, Uttar Pradesh, 201009",Uttar Pradesh,11:00 AM to 09:30 PM,,,7428891244
"Sector 4, Vaishali","Shop No 3, Ground Floor, Nipun Plaza, Plot No 1, Sector 4, Vaishali, Near Nazeer Food Restaurant, Ghaziabad, Uttar Pradesh, 201010",Uttar Pradesh,11:00 AM to 09:30 PM,,,7428891246
Dadri,"Khasra No 756, Gt Road, Gt Road, Opposite Reliance Trends, Dadri, Uttar Pradesh, 203207",Uttar Pradesh,11:00 AM to 09:30 PM,,,8929335305
Durgakund,"Shop No B 27/98, A/7A, Durgakund Road, Durgakund, Beside Dayal Tower, Varanasi, Uttar Pradesh, 221005",Uttar Pradesh,11:00 AM to 09:30 PM,,,7428890216
Ghazipur,"Shop No 137/1, Saklenabad, Sadar, , Saklenabad, Ghazipur, Uttar Pradesh, 233001",Uttar Pradesh,11:00 AM to 09:00 PM,,,8447713955
Moradabad,"20 Awas Vikas, Pili Kothi Chauraha, Kanth Road, Moradabad, Uttar Pradesh, 244001",Uttar Pradesh,11:00 AM to 09:00 PM,,,8865955520
Betiahata Chowk,"Shop No 3 & 4, St Andrews Inter College, Bettihata, Betiahata Chowk, Near Petrol Pump, Gorakhpur, Uttar Pradesh, 273001",Uttar Pradesh,11:00 AM to 09:30 PM,,,7428890238
Indirapuram,"Shop No B/120, Ground Floor, Indirapuram Habitat Centre, Indirapuram, Near Hira Sweets, Ghaziabad, Uttar Pradesh, 201014",Uttar Pradesh,11:00 AM to 09:30 PM,,,7428891281
Govind Nagar,"79/4, A Block 8, Govind Nagar, Govind Nagar, Near Chawla Chauraha, Kanpur, Uttar Pradesh, 208006",Uttar Pradesh,11:00 AM to 09:30 PM,,,8929172797
Mall of India,"Shop No D17 B, Lower Ground Floor, Sector 18, Dlf Mall Of India, Next To Jawed Habib, Noida, Uttar Pradesh, 201301",Uttar Pradesh,11:00 AM to 09:30 PM,,,7428891282
SP Marg,"43/5 & 6, Sardar Patel Marg, Civil Lines, Sp Marg, Prayagraj, Uttar Pradesh, 211001",Uttar Pradesh,11:00 AM to 09:00 PM,,,9899301527
Rajajipuram,"E 2624 Rajajipuram, , Rajajipuram, Near Lal Path Lab, Lucknow, Uttar Pradesh, 226017",Uttar Pradesh,11:00 AM to 09:30 PM,,,9971523524
Begumbridge,"Shop No 2, Ground Floor, Crown Plaza, South, Begum Bridge, Begum Bridge, Adjacent To Nazeer Foods, Meerut, Uttar Pradesh, 250001",Uttar Pradesh,11:00 AM to 09:00 PM,,,8929347794
Malviya Road,"Malviya Road, Near Union Bank, Malviya Road, Deoria, Uttar Pradesh, 274001",Uttar Pradesh,10:30 AM to 08:00 PM,,,7303974975
"Civil Lines, Kanpur","Shop No 14/122, Plot No 48, Ppn Market, Civil Lines, Near Pandit Prithi Nath College, Kanpur, Uttar Pradesh, 208001",Uttar Pradesh,11:00 AM to 09:30 PM,,,7428891306
Pilibhit,"Naugawan Pakariya, Near Chatri Chauraha, Tanakpur Road, Nai Basti, Pilibhit, Uttar Pradesh, 262001",Uttar Pradesh,10:00 AM to 09:00 PM,,,9149360474
Phoenix Palassio Mall,"T-35, Third Floor, Phoenix Palassio Mall, Sector 7, Gomti Nagar Extension, Amar Saheed Path, Gomti Nagar, Near Ekana Stadium, Lucknow, Uttar Pradesh, 226010",Uttar Pradesh,11:00 AM to 09:30 PM,,,7303842843
Shakti Chowk,"First Floor, 198/53, Sd Puram Colony, Gate No 1, Civil Lines 1, Shakti Chowk, Bijnor, Uttar Pradesh, 246701",Uttar Pradesh,11:00 AM to 09:30 PM,,,8447830154
Mirzapur,"Giridhar Ka Chauraha, Badli Katra Road, Near City Kart, Mirzapur, Uttar Pradesh, 231001",Uttar Pradesh,10:00 AM to 09:00 PM,,,7393868630
VVIP Mall,"G 18, Vvip Mall, Nh 58, Raj Nagar Extension, Noor Nagar, Near Heera Sweets, Ghaziabad, Uttar Pradesh, 201001",Uttar Pradesh,11:00 AM to 09:30 PM,,,7428891312
Panchsheel,"Shop No Gf 43 Ground Floor, Plot No Gh 1, Link Road, Greno West, Link Road, Near Guru Di Hatti, Greater Noida, Uttar Pradesh, 201306",Uttar Pradesh,11:00 AM to 09:30 PM,,,9643107980
Govindpuram,"Shop No 20 & 21, Gf, Signature Street, G Block, Govindpuram, Govindpuram, Ghaziabad, Uttar Pradesh, 201013",Uttar Pradesh,11:00 AM to 09:30 PM,,,8929436779
Shalimar Gateway Mall Alambagh,"16 Ground Floor, Shalimar Gateway Mall, Alambagh, Beside Alambagh Bus Stand, Lucknow, Uttar Pradesh, 226005",Uttar Pradesh,11:00 AM to 09:00 PM,,,8929277343
Hapur,"2423, Ground Floor, Nehru Chowk, Atarpura, Garh Road, Garh Road, Hapur, Uttar Pradesh, 245101",Uttar Pradesh,11:00 AM to 09:00 PM,,,9999203861
Kidwai Nagar,"133/155, M Block, Kidwai Nagar, Kidwai Nagar, Beside Bank Of Baroda, Kanpur, Uttar Pradesh, 208011",Uttar Pradesh,11:00 AM to 09:30 PM,,,8929276286
Kamla Nagar,"32A/B71, 1St Floor, Semi Basement, Central Bank Road, Kamla Nagar, Kamla Nagar, Agra, Uttar Pradesh, 282005",Uttar Pradesh,11:00 AM to 09:30 PM,,,8929306428
Mahagun Mart Shopping Complex,"Shop No 48, Plot No Gh04, , Mahagun Mart Shopping Complex, Gaur City 2, Greater Noida West, Noida, Uttar Pradesh, 201301",Uttar Pradesh,11:00 AM to 09:30 PM,,,7428891333
Fatehabad Road,"Groud Floor, Khasra No 1079 ,1375, & 1374, Mouza Basai Mustakil Tehil District, 30/6/20, K/1, Gower Chowki, Fatehabad Road, Agra, Uttar Pradesh, 282001",Uttar Pradesh,11:00 AM to 09:00 PM,,,5624092451
Flagship Store Great India Place Mall,"Shop No 46, 47, Ground Floor, Sector 38, Great India Place Mall 2, Opposite Tanishq, Noida, Uttar Pradesh, 201301",Uttar Pradesh,11:00 AM to 09:30 PM,,,7428891344
"Atta Market, Sector 18, Noida","G6 & G6A, Ground Floor, Jop Plaza, , Atta Market, Sector 18, Next To Metro Station Gate No 2, Noida, Uttar Pradesh, 201301",Uttar Pradesh,11:00 AM to 09:30 PM,,,7428891023
Abu Lane,"Ground Floor, C313, Abu Lane, Meerut, Uttar Pradesh, 250001",Uttar Pradesh,11:00 AM to 09:00 PM,,,8447727685
Lajpat Nagar,"Ground Floor, Plot No 120/852, Narainpurwa, Lajpat Nagar, Lajpat Nagar, Kanpur, Uttar Pradesh, 208012",Uttar Pradesh,11:00 AM to 09:30 PM,,,8447893843
"Sector 12, Vasundhara","Plot No 506, Ground Floor, Sector 12, Vasundhara, Opposite Sunrise Mall, Ghaziabad, Uttar Pradesh, 201012",Uttar Pradesh,11:00 AM to 09:30 PM,,,7428891374
Basharatpur,"UGF, JP Complex, Plot No 281A, Basharatpur, Near Passport Office, Gorakhpur, Uttar Pradesh, 273004",Uttar Pradesh,11:00 AM to 09:30 PM,,,8929608628
Civil Lines,"Lg 4, Lower Ground Floor, Ram Raghu Palazzo, Church Road, Civil Lines Village Sarjepur, Civil Lines, Agra, Uttar Pradesh, 282002",Uttar Pradesh,11:00 AM to 09:30 PM,,,8447731781
Shahjahanpur,"Nath Tower, Tareen Bahadur Ganj, Near Ghantaghar, Shahjahanpur, Uttar Pradesh, 242001",Uttar Pradesh,11:00 AM to 09:00 PM,,,8929342372
Swaroop Nagar,"Shop No G8 & G9, Ground Floor, House No 7/118, Tulsa Complex, Swaroop Nagar, Swaroop Nagar, Kanpur, Uttar Pradesh, 208002",Uttar Pradesh,11:00 AM to 09:30 PM,,,8447745038
Hazratganj,"Shop No 4,5,6, Gobind Ram Son'S, Besides Marksmen Restaurant, Hazratganj, Besides Marskmen Restaurant, Lucknow, Uttar Pradesh, 226001",Uttar Pradesh,11:00 AM to 09:30 PM,,,9643241384
Logix Mall,"Shop No 10, Ground Floor, Plot No Bw 58, Logix City Center Mall, Sector 32, Opposite Haldiram'S, Noida, Uttar Pradesh, 201301",Uttar Pradesh,11:00 AM to 09:30 PM,,,8588911397
Gumti No 05,"Upper Ground Floor, House No Old 119/548, New 119/1075, Darshanpurwa, Gumti No 05, Near Top Of The Town, Kanpur, Uttar Pradesh, 208012",Uttar Pradesh,11:00 AM to 09:30 PM,,,8929306701
Sector 50,"Shop No B 1/50, , Sector 50, Noida, Near Noida Sector 50 Market, Noida, Uttar Pradesh, 201301",Uttar Pradesh,11:00 AM to 09:30 PM,,,7428891081
Gaur City Mall,"Shop No 10, First Floor, Gaur City Mall, Plot No C-01B-Gh-01, Sec 4, Greater Noida, Char Murti Chowk, Greater Noida, Uttar Pradesh, 201301",Uttar Pradesh,11:00 AM to 09:30 PM,,,8929421380
Chi V,"Shop No 07, Ground Floor, The Park Street, Express Park View Ii, Plot No Gh 03, Sector Chi V, Gautam Buddha Nagar, Sector Chi V, Greater Noida, Uttar Pradesh, 201310",Uttar Pradesh,11:00 AM to 09:30 PM,,,7065045092
Paota,"102/A, Main Mandore Road, Paota, Paota, Opposite Idfc First Bank, Jodhpur, Rajasthan, 342006",Rajasthan,11:00 AM to 09:30 PM,,,8929345598
Gumanpura,"Shop No 139, Ground Floor, Kotri Road, , Gumanpura, Opposite Reliance Jewels, Kota, Rajasthan, 324007",Rajasthan,11:00 AM to 09:30 PM,,,7428891116
Indiabull Mega Mall,"G 67, G 69, Indiabulls Mega Mall, Plot No 1, Pali Road, Vijay Raja Nagar, Indiabulls Mega Mall, Jodhpur, Rajasthan, 342005",Rajasthan,11:00 AM to 09:00 PM,,,8929270403
Shobhagpura,"01, Kh No 369, 370, 373, 375, Revenue Village, Shobhagpura, Udaipur, Rajasthan, 313011",Rajasthan,11:00 AM to 09:30 PM,,,7065045152
Sri Ganganagar,"18/19, Old Nh15, Rohit Udyog Complex, Sri Ganganagar, Rajasthan, 335001",Rajasthan,11:00 AM to 09:00 PM,,,7303376377
Kunhadi,"Plot No G-1,G-2, Shop No 1&2, Landmark City, Kunhadi, Kunhadi, Opposite Sangyan Gate No 3, Kota, Rajasthan, 324008",Rajasthan,11:00 AM to 09:30 PM,,,8447823524
Jhalawar Road,"Showroom 6, Ground Floor, Tripolis, Plot 2A, Jhalawar Road, Rajeev Gandhi Nagar Scheme, Jhalawar Road, Kota, Rajasthan, 324005",Rajasthan,11:00 AM to 09:30 PM,,,8929331301
Murlipura,"Shop No 57A & 58A, Road No 1, Bikaner Road, NHW 11, Murlipura, Jaipur, Rajasthan, 302039",Rajasthan,11:00 AM to 09:00 PM,,,8447894834
Patrakar Colony,"C31, 100 Feet Road Patrakar, Colony, Dholai, Mansarovar Extension, Patrakar Colony, Jaipur, Rajasthan, 302020",Rajasthan,11:00 AM to 09:00 PM,,,8929336557
Maharani Farms,"P No 37, Pratviraj Nagar, Maharani Farm, Durgapura, Durgapura, Jaipur, Rajasthan, 302018",Rajasthan,11:00 AM to 09:00 PM,,,8447805885
Vaishali Nagar,"B-105, Nemi Nagar Extension, Block A, Vaishali Nagar, , Vaishali Nagar, Jaipur, Rajasthan, 302021",Rajasthan,11:00 AM to 09:30 PM,,,8929708768
GT Central Mall,"Shop No 38, First Floor, Gt Central Mall, Plot No 4, Indira Place, Malviya Nagar, Malviya Nagar, Near Gaurav Tower, Jaipur, Rajasthan, 302017",Rajasthan,11:00 AM to 09:00 PM,,,9582241501
Tripolia Bazar,"Shop No 138, Chaura Rasta, Tripolia Bazaar, Tripolia Bazaar, Jaipur, Rajasthan, 302003",Rajasthan,11:00 AM to 09:00 PM,,,8447820167
Rangbari,"Joshi Tower, Plot No 9-F-23, Mahaveer Nagar 3, Rangbari, Rangbari, Kota, Rajasthan, 324005",Rajasthan,11:00 AM to 09:30 PM,,,8929340422
Vidyadhar Nagar,"Shop No 12, 19 & 20, Ganpati Paradise, Sector 2, Central Spine, Vidyadhar Nagar, Jaipur, Rajasthan, 302039",Rajasthan,11:00 AM to 09:30 PM,,,9311773747
Subhash Nagar,"A87, Subhash Nagar Shopping Centre, Hotel Marudhar Complex, Subhash Nagar, Jaipur, Rajasthan, 302032",Rajasthan,11:00 AM to 09:30 PM,,,8929210978
Chitrakoot,"S1, Tn Towers 10/165, Chitrakoot Marg, Vaishali Nagar, Opposite V Mart, Jaipur, Rajasthan, 302021",Rajasthan,11:00 AM to 09:30 PM,,,8929172623
Nai sadak,"Shop No 163, Nai Sadak , Obct Scheme, , Nai Sadak, Jodhpur, Rajasthan, 342006",Rajasthan,11:00 AM to 09:00 PM,,,8929435319
Nagori Garden,"G-10, Fateh Tower, , Nagori Garden, Near City Post Office, Bhilwara, Rajasthan, 311001",Rajasthan,11:00 AM to 09:00 PM,,,7428890219
Gumanpura,"Ground Floor, Plot No 97, Shopping Centre, Opposite Bharat Hotel, Gumanpura, Kota, Rajasthan, 324007",Rajasthan,11:00 AM to 09:30 PM,,,8955586663
Sardarpura,"Plot No 208,1St C Road, Sardarpura, , Sardarpura, Near Azad Hind College, Jodhpur, Rajasthan, 342001",Rajasthan,11:00 AM to 09:30 PM,,,7428890234
Raja Park,"Plot No 11/1, Ground Floor, Govind Marg Anand Puri, Raja Park, Raja Park, Jaipur, Rajasthan, 302004",Rajasthan,11:00 AM to 09:30 PM,,,9711991502
Gopalpura,"Plot No 1, Ground Floor, Shakti Nagar, Goplapura Bypass, , Goplapura, Near Triveni Chauraha, Jaipur, Rajasthan, 302019",Rajasthan,11:00 AM to 09:30 PM,,,8929441431
Mansarovar,"Shop No 80/91, Madhyam Marg, Patel Marg, Mansarovar, Opposite Mansarovar Plaza, Jaipur, Rajasthan, 302020",Rajasthan,11:00 AM to 09:30 PM,,,7428890253
Talwandi,"Plot No 4, P6 , Ground Floor, Talwandi, Adjacent To Rajasthan Juice Centre, Kota, Rajasthan, 324005",Rajasthan,11:00 AM to 09:30 PM,,,8587908928
Pratap Nagar,"Ground Floor, First Floor, Second Floor & Terrace Floor, Plot No 1, Sector 8, Pratap Nagar, Tonk Road, Jaipur, Rajasthan, 302033",Rajasthan,11:00 AM to 09:30 PM,,,1414372074
Jagatpura,"G 08 & 09, R Tech Capital High Street, Plot No C, Main Mahal Road, Jagatpura, Jagatpura, Jaipur, Rajasthan, 302017",Rajasthan,11:00 AM to 09:30 PM,,,8929344657
"Ashok Nagar, Udaipur","Shop No 7, 56 Amrit Shree, Main Road, , Ashok Nagar, Udaipur, Near Jain Temple, Udaipur, Rajasthan, 313001",Rajasthan,11:00 AM to 09:30 PM,,,7428891331
Tonk Road,"Shop No 20, Src-20, Yojna No 4, Lalkothi, Gandhi Nagar, Tonk Road, Near Milestone Mall, Jaipur, Rajasthan, 302015",Rajasthan,11:00 AM to 09:30 PM,,,7428890281
Khatipura,"Badaya Bhwana, Plot No 5, Khatipura Road, Jhotwara, Khatipura, Opposite To Gordhan Sky Mall, Jaipur, Rajasthan, 302012",Rajasthan,11:00 AM to 09:00 PM,,,8447731267
World Trade Park Mall,"Second Floor, World Trade Park Mall, Malviya Nagar, Opposite Hamleys Toys, Jaipur, Rajasthan, 302017",Rajasthan,11:00 AM to 09:30 PM,,,7428891339
MI Road,"Shop No 317, , Mi Road, Near Mi Road Post Office, Jaipur, Rajasthan, 302001",Rajasthan,11:00 AM to 09:30 PM,,,7428891342
Panchwati,"Ground Floor, Isckon Central, Shop No 5 & 6, Plot No 34, Panchwati, Near Panchwati Puliya, Udaipur, Rajasthan, 313001",Rajasthan,11:00 AM to 09:00 PM,,,8447902932
Hanumangarh,"Shop No 13, Mahavir Colony, Ganganagar Road, Near ICICI Bank, Hanumangarh Junction, Rajasthan, Rajasthan, 335512",Rajasthan,11:00 AM to 09:00 PM,,,9711271330
Ratanada Jodhpur,"Shop No 1, Ground Floor, Bhati Complex, Bhati Chairaha, Ratanada, Jodhpur, Rajasthan, 342011",Rajasthan,11:00 AM to 09:30 PM,,,8929338194
Nexus Celebration Mall,"Lg-16, Lower Ground Floor, Bhuwana, Forum Celebration Mall, Near Big Bazaar, Udaipur, Rajasthan, 313004",Rajasthan,11:00 AM to 09:30 PM,,,7428891373
Gandhi Path West,"Plot Ground Floor, Deepak Vatika, Gandhi Path West, Vaishali Nagar, Vaishali Nagar, Jaipur, Rajasthan, 302021",Rajasthan,11:00 AM to 09:00 PM,,,8929302312
Kalwar Road,"Pandit Ji Ki Thadi, Kalwar Road, Sanjay Nagar A, Suraj Nagar, Jhotwara, Kalwar Road, Near Hotel Manohar Palace, Jaipur, Rajasthan, 302012",Rajasthan,11:00 AM to 09:30 PM,,,8447931016
Vaishali Nagar,"Plot No 236, Shop No G1, Ground Floor, Hanuman Nagar, D Block, Vaishali Nagar, Vaishali Nagar, Jaipur, Rajasthan, 302021",Rajasthan,11:00 AM to 09:30 PM,,,8929327926
Mansarover,"61/253, Rajat Path, Mansarovar, Sector 5, Jaipur, Rajasthan, 302020",Rajasthan,11:00 AM to 09:30 PM,,,8929167902
"Gaurav Tower, Malviya Nagar","Shop No 16, Ground Floor, Gaurav Tower, Malviya Nagar, Near Crystal Court Mall, Jaipur, Rajasthan, 302017",Rajasthan,11:00 AM to 09:30 PM,,,7428891087
Ajmer Road,"Shop No 1G And 2B, Swaroop Colony, Ajmer Road, Ajmer Road, Jaipur, Rajasthan, 302006",Rajasthan,11:00 AM to 09:30 PM,,,8447746245
Shyam Nagar,"Plot No 89, Janpath,, Shyam Nagar, Shyam Nagar, Sparsh Saloon & Chum Bakk Bakery, Jaipur, Rajasthan, 302019",Rajasthan,11:00 AM to 09:30 PM,,,8929607627
Sikar,"G-1, Ground Flour, Spn And Company, Bhaskar Mega Mall, Station Road, Station Road, Bhaskar Mega Mall, Sikar, Rajasthan, 332001",Rajasthan,11:00 AM to 09:00 PM,,,9810461371
Sanganer,"Shop No 12 & 13, Diggi Malpura Road, Sanganer, Jaipur, Rajasthan, 302029",Rajasthan,11:00 AM to 09:00 PM,,,8447893192
Chittorgarh,"New Puliya, Near Tvs Showroom, New Puliya, Chittorgarh, Rajasthan, 312001",Rajasthan,11:00 AM to 09:00 PM,,,9870161377
Nirman Nagar,"78, Everest Vihar, Kings Road, Nirman Nagar, Nirman Nagar, Opposite Om Hotel, Jaipur, Rajasthan, 302019",Rajasthan,11:00 AM to 09:30 PM,,,8929289663
Alwar Rajasthan,"Plot No 152/153, Jai Complex, Road No 2, Bhagat Singh Circle, Arya Nagar, Alwar, Rajasthan, 301001",Rajasthan,11:00 AM to 09:00 PM,,,9654910313
93 Avenue Mall Pune,"Shop No 2, Ground Floor, 93 Avenue Mall, Fatima Nagar, Kalubai Chowk, Pune, Maharashtra, 411022",Maharashtra,11:00 AM to 09:30 PM,,,9582331365
Nalasopara West,"Shop No 14, Aster Apartment, Nalasopara West, Nalasopara, Near Shri Prashtha, Mumbai, Maharashtra, 401203",Maharashtra,11:00 AM to 09:00 PM,,,8447731721
Satara,"Shop No 2, Rajpath, Rajeshpura Road, Sadshiv Peth, Rajpath, Satara, Maharashtra, 415002",Maharashtra,11:00 AM to 09:30 PM,,,8929271730
Gauri Pada,"Shop No 3 & 4, Hari Om Apt, Dhamankar Naka, Gauri Pada, Opposite Bsnl Office, Bhiwandi, Maharashtra, 421302",Maharashtra,11:00 AM to 09:00 PM,,,7065045210
Rajarampuri,"Shop No 1, Ground Floor, 1754 E, Ward Sripati Apartment, Rajarampuri 4Th Lane, Rajarampuri, Kolhapur, Maharashtra, 416003",Maharashtra,11:00 AM to 09:30 PM,,,7428890012
Kamothe,"Shop No 10, Uma Shiv Corner, Plot No 22 & 22A, Sector 19, Kamothe, Navi Mumbai, Maharashtra, 410206",Maharashtra,11:00 AM to 09:30 PM,,,8929435317
Nepean Sea Road,"Plot 16A, Shop No 3, Grond Floor, Alaknanda Apartment, Nepeansea Road, Near Malabar Hill, Mumbai, Maharashtra, 400006",Maharashtra,11:00 AM to 09:00 PM,,,8929345027
Khopoli,"Shop No 7 & 8 Ashiyana Infinity, Mulgoan, Shri Ram Nagar, Mumbai Pune Highway, Shri Ram Nagar, Khopoli, Maharashtra, 410203",Maharashtra,11:00 AM to 09:00 PM,,,8929328378
Bhoomi Mall Belapur,"Shop No 27, Bhoomi Mall, Sector 15, Palm Beach Road Cbd Belapur, Belapur, Navi Mumbai, Maharashtra, 400614",Maharashtra,11:00 AM to 09:30 PM,,,8588921425
Poonam Cluster,"Shop No 37, 38 & 39, Ground Floor, Poonam Estate Cluster 2, Building No 3, Mira Road, Near Shanti Chowk, Thane, Maharashtra, 401107",Maharashtra,11:00 AM to 09:00 PM,,,8373901430
Elpro City Square Mall,"G 17, Ground Floor, Elpro City Square Mall, Chinchwad Gaon, Pune, Maharashtra, 411033",Maharashtra,11:00 AM to 09:30 PM,,,8448420421
Badlapur,"Shop No 15 & 16, Dream Makers By Kasturi Life Space, Station Road, Katrap, Badlapur East, Badlapur East, Thane, Maharashtra, 421503",Maharashtra,11:00 AM to 09:30 PM,,,9667042043
Kandivali West,"Shop No 35, Profit Center, Boraspada Road, Kandivali West, Opposite Panchsheel Heights, Mumbai, Maharashtra, 400067",Maharashtra,11:00 AM to 09:00 PM,,,7428891118
Kharghar,"Shop No 7, Ground Floor, The Crown Plaza, Gharkul, Sector-15, Kharghar, Sector-15, Kharghar, Near D Mart, Navi Mumbai, Maharashtra, 410210",Maharashtra,11:00 AM to 09:30 PM,,,9319364916
Baramati,"Gat No-279/1/ B, Plot No, 4/5, Building Ajinkya‚ Bazar, Bhigwan Road, Near Axis Bank, Baramati, Maharashtra, 413102",Maharashtra,11:00 AM to 09:30 PM,,,7065045379
Fort,"Shop No 46, Ground Floor, Islam Building, , Hutatma Chowk, Fort, Near Flora Fountain, Mumbai, Maharashtra, 400001",Maharashtra,11:00 AM to 09:00 PM,,,7428891119
Santcruz West,"Shop No 1, Dheeraj Heritage, Best Colony, Juhu, Santacruz West, Best Colony, Opposite Kenia Hospital, Mumbai, Maharashtra, 400054",Maharashtra,11:00 AM to 09:00 PM,,,9319363645
Mahim,"Shop No 3, 4 & 5, Liliyan House, 145 B, L J Road, Mahim, Mumbai, Maharashtra, 400016",Maharashtra,11:00 AM to 09:30 PM,,,7428891120
Breach Candy,"Shop No 5, Nanik Niwas Building, Bhulabhai Desai Road, Breach Candy, Opposite Tata Garden, Mumbai, Maharashtra, 400026",Maharashtra,11:00 AM to 09:00 PM,,,7428891121
Tarabai Park,"Shop No 1, Shweta Apartment, Damini Hotel Road, Tarabai Park, Tarabai Park, Near Sasane Ground, Kolhapur, Maharashtra, 416003",Maharashtra,11:00 AM to 09:30 PM,,,8929277342
Runwal,"Shop No 9, Runwal Anthurium, Lbs Road, Runwal, Mulund, Maharashtra, 400080",Maharashtra,11:00 AM to 09:00 PM,,,7065095850
Medical College Chowk,"Shop No 2 & 3, Vinayak Tower, Untkhana Road, Medical Square, Medical College Chowk, Nagpur, Maharashtra, 440009",Maharashtra,11:00 AM to 09:00 PM,,,9870561562
"Khanda Colony, Panvel","Shop Number 14/15, Tulsi Harmony, Sector 1, Khanda Colony, Greater Khanda, Panvel, Opposite Sai Prasad Hotel, Navi Mumbai, Maharashtra, 410206",Maharashtra,11:00 AM to 09:30 PM,,,8447732042
Ulhasnagar,"Shop No 4, Yash Apartment, C-Block Road, Goal Maidan, , Goal Maidan, Near Natural Ice Cream, Ulhasnagar, Maharashtra, 421001",Maharashtra,11:00 AM to 09:30 PM,,,9319371823
Lal Chowky,"Shop No 9 & 24 Ground Floor, Sunsoman Square, Agra Road, Lal Chowky, Opposite Indus Bank, Kalyan West, Maharashtra, 421301",Maharashtra,11:00 AM to 09:00 PM,,,7065035390
Malad West,"Unit No 1, Simplex Khush Angan, Sv Road, Malad West, Opposite L M Patel Rotary Eye Hospital, Mumbai, Maharashtra, 400064",Maharashtra,11:00 AM to 09:00 PM,,,7428891130
Viviana Mall Thane,"Unit No Sf 17A, 2Nd Floor, Viviana Mall, , Thane West, Next To Cinepolis, Thane, Maharashtra, 400601",Maharashtra,11:00 AM to 09:30 PM,,,7428891131
Amboli,"Shop No 2, Ground Floor, Mayfair Meridian, Amboli, Andheri West, Caeser Road, Mumbai, Maharashtra, 400058",Maharashtra,11:00 AM to 09:00 PM,,,7428891132
Juhu Tara Road,"Shop No 12, Vasant Bahar Chs Ltd, Juhu Tara Road, Juhu, Juhu Tara Road, Near Hotel Sea Princess, Mumbai, Maharashtra, 400049",Maharashtra,11:00 AM to 09:00 PM,,,9319362715
Ambernath,"Shop Number 13 & 14, Plot No 63 & 64, Cts, Panvelkar Pride, Shivaji Road, Kansai Section, Ambernath, Opposite Idbi Bank, Ambernath, Maharashtra, 421501",Maharashtra,11:00 AM to 09:00 PM,,,8929762047
Lower Parel,"Shop No 2, Sanghvi Building, Ganpar Rao Marg, Lower Parel, Near Dmart, Mumbai, Maharashtra, 400013",Maharashtra,11:00 AM to 09:00 PM,,,8929271737
Koregaon Park,"1 B, Gera Sterling North Main Road, Koregaon Park, Koregaon Park, Pune, Maharashtra, 411001",Maharashtra,11:00 AM to 09:30 PM,,,8929287708
Kalamboli,"Shop No 23, Ground Floor, Neelsiddhi‚ Amarante Chs Ltd, Plot No 4, Sector 9E, Roadpalli, Kalamboli, Roadpalli, Kalamboli, Besides Manoj Medical, Navi Mumbai, Maharashtra, 410218",Maharashtra,11:00 AM to 09:00 PM,,,9319361975
Undri,"Shop No 1, S No 57/2/1A, Market Place, Vtp Urbban Nest, Hadapsar Bypass Road, Undri Chowk, Undri Chowk, Opposite Amit Colony Katraj, Pune, Maharashtra, 411060",Maharashtra,11:00 AM to 09:30 PM,,,9311773735
Panchanand Taloja,"Shop No 9, Plot No 15-18, Panchnand Heights, Sector 9, Taloja, Opposite Shree Royal Chemist, Navi Mumbai, Maharashtra, 410208",Maharashtra,11:00 AM to 09:00 PM,,,7065053054
Atria Mall,"Shop No 42, Ground Floor, Atria Mall, Dr. Annie Bishant Road, Worli, Worli, Atria Mall, Mumbai, Maharashtra, 400018",Maharashtra,11:00 AM to 09:30 PM,,,7303350351
Dombivali,"Shop No 6, Kanchan Dhara Society, Raghuveer Nagar, Dombivali East, Opposite Godrej Showroom, Manpada Road, Mumbai, Maharashtra, 421201",Maharashtra,11:00 AM to 09:00 PM,,,7428891151
Vile Parle East,"Shop No 26, C Wing, Agrawal Market, Shyam Kamal Road, Agarwal Market, Vile Parle East, Vile Parle East, Near Big Bazaar, Mumbai, Maharashtra, 400057",Maharashtra,11:00 AM to 09:00 PM,,,9319368027
Dharampeth,"Groud Floor, Gupta Bhawan, Plot No 193, West High Court Road, Dharampeth, Dharampeth, Opposite Union Bank Of India, Nagpur, Maharashtra, 440010",Maharashtra,11:00 AM to 09:00 PM,,,8929273134
Mulund West,"Shop No 55, Ground Floor, Munshi Estate, Plot No 504, 505, Mg Road, Mulund West, Below Gokul Hospital, Mumbai, Maharashtra, 400080",Maharashtra,11:00 AM to 09:30 PM,,,7428890103
Manish Nagar,"Ground Floor, Plot No 96, Bhartiya Society, Besa Beltrodi Square, Manish Nagar, Manish Nagar, Nagpur, Maharashtra, 440015",Maharashtra,11:00 AM to 09:00 PM,,,9999213925
Dhule,"Shop No 8, Ground Floor, Bafna House, Lane Number 4, Nearmadhavpura, Navnath Nagar, Dhule, Maharashtra, 424001",Maharashtra,11:00 AM to 09:00 PM,,,7065079414
Wagholi,"Shop No 1, Plot No, Khata No 661, The Orchard Complex, Wagholi, Wagholi, Pune, Maharashtra, 412207",Maharashtra,11:00 AM to 09:30 PM,,,8929271722
Lokhandwala Complex,"Shop No. 46, Krystal Avenue Chs Limited, Rna Arcade Main Road, Lokhandwala Complex, Andheri West, Mumbai, Maharashtra, 400053",Maharashtra,11:00 AM to 09:00 PM,,,7428891159
Sangli Road,"Shop No B03, Rs No 673/B/2, Balwant Plaza, Hatkanangle, Sangli Road, Sangli Road, Beside Reliance Retail, Ichalkaranji, Maharashtra, 416121",Maharashtra,11:00 AM to 09:30 PM,,,9311773751
Bhandup West,"Shop No 5, Ground Floor, Gaurai Arcade, Lbs Marg, Bhandup West, Near Domino'S Pizza, Mumbai, Maharashtra, 400078",Maharashtra,11:00 AM to 09:30 PM,,,7428891160
Nirala Bazar,"Shop No 43 & 44, Samarth Nagar, Nirala Bazar, Opposite M.P Law College, Aurangabad, Maharashtra, 431001",Maharashtra,11:00 AM to 09:30 PM,,,8448440317
Tembhode Road,"Shop No 2 & 3, Neel Srushti Complex, Tembhode Road, Palghar West, Opposite Reliance Smart Superstore,, Palghar, Maharashtra, 401404",Maharashtra,11:00 AM to 09:00 PM,,,7065045109
Dwarkadheesh Gardens,"Shop No 2, Dwarka Queen'S Park, Pimple Saudagar, Near Shivar Chowk, Pimple Saudagar, Near Shivar Chowk, Pune, Maharashtra, 411017",Maharashtra,11:00 AM to 09:30 PM,,,9873291433
Akashwani Chowk,"Shop No 3 & 4, Ahinsa Bhawan, Plot No 1, Ahinsa Nagar, Akashwani Chowk, Jalna Road, Akashwani Chowk, Beside Wellness Forever, Aurangabad, Maharashtra, 431001",Maharashtra,11:00 AM to 09:30 PM,,,8929264486
GNP Arcadia,"Store No 15, Gnp Arcadia, Sudarshan Nagar, Sudarshan Nagar, Near Pendharkar College, Dombivli, Maharashtra, 421203",Maharashtra,11:00 AM to 09:00 PM,,,8929331361
Kalyan Khadakpada Circle,"Shop No 8, B Wing, Shree Swamiprasad Chs, Khadakpada Circle, Near Mcdonald'S, Kalyan, Maharashtra, 421301",Maharashtra,11:00 AM to 09:00 PM,,,7428891172
Kharghar,"Shop No 1, Parth Chs, Plot No 228, Sector 13, Kharghar, Near Shilpa Chowk, Navi Mumbai, Maharashtra, 410210",Maharashtra,11:00 AM to 09:30 PM,,,7428890127
Solapur,"Shop No 370, Main Road, South Kasba, Opposite Unique Hospital, Solapur, Maharashtra, 413007",Maharashtra,11:00 AM to 09:30 PM,,,7428890128
Aditi Mall,"Shop No 2, Riviresa Society, Aditi Mall, Baner Road, Baner, Riviresa Society, Pune, Maharashtra, 411045",Maharashtra,11:00 AM to 09:30 PM,,,7428890130
Linking Road Bandra,"Shop No 5 & 6, Swarna Rekha, Linking Road, Bandra West, Linking Road, Near Khar Telephone Exchange, Mumbai, Maharashtra, 400052",Maharashtra,11:00 AM to 09:30 PM,,,9582211424
Chikuwadi Borivali West,"Sumit Garden Grove Daigonally, Chikuwadi, Borivali West, Opposite Pheonix Hospital, Mumbai, Maharashtra, 400092",Maharashtra,11:00 AM to 09:30 PM,,,8447893951
Oberoi Mall,"Shop No 6, Second Floor, Oberoi Mall, Yashodham Goregaon, Western Express Highway, Near Dindoshi Bus Stand, Mumbai, Maharashtra, 400063",Maharashtra,11:00 AM to 09:30 PM,,,9650611440
Tilak Nagar,"Shop No 11, Krushal Tower, Tilak Nagar, Gm Road, Tilak Nagar, Mumbai, Maharashtra, 400089",Maharashtra,11:00 AM to 09:00 PM,,,9873669399
Hudkeshwar,"Shop No 111, Ram Bhau Bus Stop, Hudkeshwar Road, New Neharu Nagar, Near Mhalgi Nagar, Nagpur, Maharashtra, 440034",Maharashtra,11:00 AM to 09:00 PM,,,9873765896
Wakad,"Shop No 3, Vijay Complex, S No 229/21, Chatrapati Chowk, Wakad, Opposite Janta Bazar, Pune, Maharashtra, 411057",Maharashtra,11:00 AM to 09:30 PM,,,8860890215
Yash Padma Arcade,"Shop No 9, Yash Padma Arcade, Tarapur Road, Sainath Nagar, Bhandarwada, Tarapur Road, Boisar, Maharashtra, 401501",Maharashtra,10:00 AM to 09:00 PM,,,8929266390
Kohtrud,"Unit 6/7, Ground Floor, Trinity Ventures, Silver Fern, Kohtrud, Opposite Kothrud Bus Stand Road, Pune, Maharashtra, 411038",Maharashtra,11:00 AM to 09:30 PM,,,7428890136
Sai Miracle Kharghar,"Shop No 7 Plot No 16, 17 / 19, Sector 34 E, Sector 35E, Kharghar, Near Hdfc Bank, Navi Mumbai, Maharashtra, 410210",Maharashtra,11:00 AM to 09:00 PM,,,8929261783
GNP Galaxy Ambernath,"Unit No 23, Gnp Galaxy, Ambernath Industrial Estate, Kalyan Badlapur Road, Ambernath West, Opposite Ordnance Factory, Thane, Maharashtra, 421501",Maharashtra,11:00 AM to 09:30 PM,,,8929330739
Shaikh Villa,"Shop No 1, 2 & 3, Shaikh Villa, Sr No 82, Hissa No 3, Opposite Bhagwati Hospital, Samarth Chowk, West Badlapur, Maharastra, 421503",Maharashtra,11:00 AM to 09:00 PM,,,9718294275
Pashan,"Shop No P/4, Om Shanti Complex, Vighnaharta Chowk, Sus Road, Pashan, Near Vighnaharta Mandir, Pune, Maharashtra, 411021",Maharashtra,11:00 AM to 09:30 PM,,,7428891185
Sagar Garden Mulund,"Shop No 6 & 7, Ground Floor, Sagar Garden Complex, Lbs Road, Mulund West, Opposite Vasant Oscar, Mumbai, Maharashtra, 400080",Maharashtra,11:00 AM to 09:00 PM,,,9873431464
Chinchwad,"Shop No 1B & 2, Premier Plaza, F Wing, Old Mumbai Pune Highway, Chinchwad, Carnival Cinemas, Pune, Maharashtra, 411019",Maharashtra,11:00 AM to 09:30 PM,,,7428890142
Arvi Naka,"194, Gandhi Nagar, Arvi Naka, Wardha, Maharashtra 442001",Maharashtra,11:00 AM to 09:00 PM,,,9953101182
Savedi Road,"Shop No G11/G12, Kohinoor Plaza, Patrakar Chowk, Savedi, Manmad Road, Patrakar Chowk, Next To Lokmat House, Ahmednagar, Maharashtra, 414003",Maharashtra,11:00 AM to 09:30 PM,,,8929344394
"Orion Mall, Panvel","Shop No G-4, Orion Mall, Plot No 311, Forest Colony, Panvel, Near St Depot, Navi Mumbai, Maharashtra, 410206",Maharashtra,11:00 AM to 09:30 PM,,,9582961434
Kalyani Nagar,"Shop No 2, Ground Floor, F-Amenity Building Fortaleza, Servay No 210, Kalyani Nagar, Near Nm Medical, Pune, Maharashtra, 411006",Maharashtra,11:00 AM to 09:30 PM,,,7289851466
Ram Maruti Road,"Shop No 4, Bhavani Prasad Building, Ram Maruti Road, Ram Maruti Road, Near Bank Of Baroda, Thane, Maharashtra, 400604",Maharashtra,11:00 AM to 09:00 PM,,,9319374930
Virar West,"Shop No 19, Shripal Shopping Center, Raja Chatrapati Shivaji Marg, Virar West, Next To Petrol Pump, Thane, Maharashtra, 401303",Maharashtra,11:00 AM to 09:00 PM,,,9654440163
Solapur,"Shop No 7 201/1/3B, Civil Line, Dhiraj Complex, Mahavir Chowk, Solapur, Maharashtra, 413001",Maharashtra,11:00 AM to 09:30 PM,,,8447744793
Kavesar,"Shop No 13A & 13B, Sarasvati School, Kavesar, , Kavesar, Near Tropical Lagoon Tower, Thane, Maharashtra, 400607",Maharashtra,11:00 AM to 09:00 PM,,,8929055867
Sinhagad Road,"Shop No 2, Wishwaganga Complex, Hingne Khurd, Sinhagad Road, Near Madhukar General Hospital, Pune, Maharashtra, 411051",Maharashtra,11:00 AM to 09:30 PM,,,7428890169
Undri1,"Shop No 126, Marvel Sangria, Ganga Boulevard Phase 2, Nibm, Mohammed Wadi, Marval Sangria, Pune, Maharashtra, 411048",Maharashtra,11:00 AM to 09:30 PM,,,8929173167
Colaba,"Shop No 4, Ruki Mahal, Shaheed Bhagat Singh Road, Colaba, Near Hp Petrol Pump, Mumbai, Maharashtra, 400005",Maharashtra,11:00 AM to 09:00 PM,,,7428891211
Flagship Store at MG Road Pune,"Shop No 1, Ground Floor, House No 3, Survey 390/796, Mg Road, Next To Unicorn Apple Store, Pune, Maharashtra, 411001",Maharashtra,11:00 AM to 09:30 PM,,,7428891212
Vihsrantwadi,"A-411006, 94, Vishrantwadi Airport Road, Kasturba Housing Society, Near Vishrantwadi chowk, Pune, Maharashtra, 411015",Maharashtra,11:00 AM to 09:00 PM,,,8929306386
"College Road, Krishi Nagar","Shop No 1 & 2, Sai Baba Darbar Building, College Road Krishi Nagar, Near Don Bosco School, Nashik, Maharashtra, 422005",Maharashtra,11:00 AM to 09:30 PM,,,7428890187
Pachpakhadi,"Shop 1 & 2, Shiv kanchi APT Arun kumar, Vaidya Road, Near Bapat Hospital Pachpakhadi, Thane West, Maharashtra, 400602",Maharashtra,11:00 AM to 09:00 PM,,,7065045241
Vazirabad,"Guru Ganesh Heights, Shop G 1, Vazirabad, , Vazirabad, Opposite Ayurvedic College And Hospital, Nanded, Maharashtra, 431602",Maharashtra,11:00 AM to 09:30 PM,,,8929355096
Metro Junction Mall,"Ground Floor, Unit No G2, Metro Junction Mall, Shilphata Road, Netivali, Kalyan, Shilphata Road, Metro Junction Mall, Kalyan, Maharashtra, 421306",Maharashtra,11:00 AM to 09:30 PM,,,9711701499
Connaught Place,"Shop No 12, Raj Sarathi Apartment, Connaught Place, Aurangabad, Maharashtra, 431003",Maharashtra,11:00 AM to 09:30 PM,,,8929176458
Kopar Khairane,"Shop No 5 & 6, Plot No 18 & 19, Satyam Tower, Sector 20, Koper Khairane, Koperkhairane, Opposite Varishtta Hotel, Navi Mumbai, Maharashtra, 400709",Maharashtra,11:00 AM to 09:30 PM,,,8373911515
Kharghar,"Shop No 23 & 24, Plot No 20, Sector 2, Kharghar, Kharghar, Sai Swar Cooperative Housing Society, Navi Mumbai, Maharashtra, 410210",Maharashtra,11:00 AM to 09:00 PM,,,9654921510
Hingna Road,"Ground Floor, Shop No 10, Jalaram Manglam, SRP Camp, Digdoh, Hingna Road, Nagpur, Maharashtra, 440016",Maharashtra,11:00 AM to 09:00 PM,,,9718010328
"R City Mall, Ghatkopar","Shop No F67, First Floor, Lbs Marg, Amrut Nagar, R City Mall, Ghatkopar West, Mumbai, Maharashtra, 400086",Maharashtra,11:00 AM to 09:30 PM,,,7428891238
Dhanori,"Shop No 8, Palladium Grand, Dhanori Vishrantwadi Road, Dhanori, Near Goodwill Square, Pune, Maharashtra, 411015",Maharashtra,11:00 AM to 09:30 PM,,,9456349431
Hadapsar,"Shop No 2, Ground Floor, 84/1, Hadapsar, Vaibhav Chitramandir, Pune, Maharashtra, 411028",Maharashtra,11:00 AM to 09:30 PM,,,7428891240
Shagun Chowk Pimpri,"Shop 1&2, Jai Govind Plaza, Shagun Chowk, Pimpri, Shastri Nagar, Pimpri Colony, Pimpri Chinchwad, Pimpri, Shagun Chowk, Pune, Maharashtra, 411017",Maharashtra,11:00 AM to 09:30 PM,,,8929326687
"Sector 7, Airoli","Shop No G9, Shiv Shankar Plaza, , Sector 7, Airoli, Next To Domino'S Pizza, Navi Mumbai, Maharashtra, 400708",Maharashtra,11:00 AM to 09:00 PM,,,7428891243
"Sector 14, Koparkhairane","Shop No 3, Lotus Chs, Sector 14, Koparkhairane, Near D-Mart Chowk, Navi Mumbai, Maharashtra, 400709",Maharashtra,11:00 AM to 09:30 PM,,,7428890210
"Chandivali, Powai","Shop No 3, Lower Ground Floor, Wing C, Lake Primrose Commercial, Chandivali, Beside Lakme Salon, Mumbai, Maharashtra, 400076",Maharashtra,11:00 AM to 09:00 PM,,,7428891252
Ulwe,"Shop No 4, Shagun Essentia, Plot No 5, Sector 19, Ulwe, , Ulwe, Near Hdfc Bank, Navi Mumbai, Maharashtra, 410206",Maharashtra,11:00 AM to 09:00 PM,,,7838199672
Nigdi,"Shop No 5/6, Prestige Plaza, Old Mumbai Pune Highway, Nigdi, Pune, Maharashtra, 411335",Maharashtra,11:00 AM to 09:30 PM,,,7428890218
"Flagship Store JM Road, Pune","Shop No 4, 99 Deccan Mall, Jm Road, Pune, Maharashtra, 411004",Maharashtra,11:00 AM to 09:30 PM,,,7838290571
Sangli,"Shop No 1, Shri Laxmi Chembers, Beside Rajaram Sahakari Bank Ltd, Sangli, Maharashtra, 416416",Maharashtra,11:00 AM to 09:30 PM,,,8929338687
Latur,"Shop 13, Municipal Shopping Complex, Gandhi Chowk, Gandhi Chowk, Latur, Maharashtra, 413512",Maharashtra,11:00 AM to 09:30 PM,,,8929335325
Dahisar,"Shop No 1&2, Manhar Residency, Kandarpada Circle, Opposite Hotel Majestic, Dahisar West, Mumbai, Maharashtra, 400068",Maharashtra,11:00 AM to 09:00 PM,,,8929172628
Paud Road,"Shop No 10 And 11, Anand Complex, Alkapuri Society, Paud Road, Kothrud, Opposite Kinara Hotel, Pune, Maharashtra, 411038",Maharashtra,11:00 AM to 09:30 PM,,,7428890226
Vasai,"Shop No 1, Ground Floor, Adinath Apartment, Ambadi Road, Vasai West, Opposite Gurudwara, Mumbai, Maharashtra, 401202",Maharashtra,11:00 AM to 09:00 PM,,,7428890227
Kausa Mumbra,"Shop No 15, Dost Apartment, Kausa Mumbra, Kausa, Besides Bank Of Baroda, Thane, Maharashtra, 400612",Maharashtra,11:00 AM to 09:00 PM,,,8447731483
MG Road Kandivali West,"Shop No 2 & 3 Burhani Heritage Chs Ltd, M G Road, Kandivali West, Kandivali West, Opposite Bohra Masjid, Mumbai, Maharashtra, 400067",Maharashtra,11:00 AM to 09:00 PM,,,8929261281
Badnera Road,"Shop No 16 & 17, Swastik Sankul, Badnera Road, Nawathe, Near Hp Petrol Pump, Amravati, Maharashtra, 444607",Maharashtra,11:00 AM to 09:00 PM,,,7428890230
Shivaji Chowk,"Shop No 686 & 689, Shivaji Chowk, Ulhasnagar, Maharashtra, 421003",Maharashtra,10:00 AM to 09:00 PM,,,9022277722
Mira Road,"Antariksh Height, Shop No 2, Kanakia Road, Mira Road East, Mira Road East, Opposite Kanakia Police Station, Mumbai, Maharashtra, 401107",Maharashtra,11:00 AM to 09:00 PM,,,8447705725
"Marol, Andheri East","Shop No 1, 2, Raj Apartment, Military Road, Marol, Andheri East, Opposite Raj Industrial Complex, Mumbai, Maharashtra, 400059",Maharashtra,11:00 AM to 09:00 PM,,,7428891272
Parbhani,"34-112, Gavane Road, Gavane Road, Near Hotel Niraj, Parbhani, Maharashtra, 431401",Maharashtra,11:00 AM to 09:30 PM,,,8929174412
Matte Chowk,"Plot No 75, Narayan Sadan, Atre Layout, Ring Road, Near Pratap Nagar Square, Nagpur, Maharashtra, 440022",Maharashtra,11:00 AM to 09:00 PM,,,7428890236
Goregaon West,"Shop No 4, Ashokraj Chs, S V Road, Goregaon West, Opposite Hirnen Shopping Centre, Mumbai, Maharashtra, 400062",Maharashtra,11:00 AM to 09:00 PM,,,7428891274
Varsova Kabra Metro One,"Shop No 13, Kabra Metro One, Pratap Chs Ltd, J P Road, Versova, Andheri West, Varsova, Near Versova Metro Station, Mumbai, Maharashtra, 400058",Maharashtra,11:00 AM to 09:00 PM,,,7428891288
Ambegaon,"Shop No 56, Cafeteria 3, Aston Plaza, Narhe Ambegaon Road, Near Star Market, Ambegaon Budruk, Pune, Maharashtra, 411046",Maharashtra,10:30 AM to 09:30 PM,,,2029913030
Phadke Road,"Shop No 7A, 8-9, Janki Hari Chs, Phadke Road, Dombivli East, Pendse Road, Thane, Maharashtra, 421201",Maharashtra,11:00 AM to 09:00 PM,,,9319360887
Xperia Mall,"Shop No 1/29, First Floor, Dombivali East, Dombivali East, Opposite Lodha World School, Mumbai, Maharashtra, 421204",Maharashtra,11:00 AM to 09:30 PM,,,7428891284
Salunkhe Vihar,"Unity Splendour Building, Salunkhe Vihar Road, Borade Nagar, Wanwadi, Salunkhe Vihar, Opposite Bank Of Maharashtra, Pune, Maharashtra, 411040",Maharashtra,11:00 AM to 09:30 PM,,,8929167669
Kondhwa Khurd,"Shop No 6, Building A3, Sarvoday Chs, Nibm Road, Kondhwa Khurd, Near Kubera Garden, Pune, Maharashtra, 411048",Maharashtra,11:00 AM to 09:30 PM,,,7428890248
Mumbai Central,"15, Ground Floor, B Wing, Santoshi Mata Chs, Dr Dadasaheb Bhadkamkar Marg, Santoshi Mata Chs, Near Saraswat Bank, Mumbai, Maharashtra, 400008",Maharashtra,11:00 AM to 09:00 PM,,,7428891037
Growel Mall,"G 5A, Ground Floor, Akurli Road, Kandivali East, Growel Mall, Mumbai, Maharashtra, 400101",Maharashtra,11:00 AM to 09:30 PM,,,7428891291
Nitin Company,"Nitin Company, Shop No 15 & 16, Prestige Garden, Almeda Raod, Ganeshwadi, Ganeshwadi, Thane, Maharashtra, 400602",Maharashtra,11:00 AM to 09:00 PM,,,9873101538
"Inorbit Mall, Vashi","Shop No F12, First Floor, Inorbit Mall, Vashi, Next To Vashi Station, Navi Mumbai, Maharashtra, 400705",Maharashtra,11:00 AM to 09:30 PM,,,7428891298
"Domestic Terminal 2, Mumbai Airport","Chhatrapati Shivaji International Airport, Vile Parle East, Domestic Terminal 2, Second Shop On Left After Security Check, Mumbai, Maharashtra, 400099",Maharashtra,11:00 AM to 10:00 PM,,,7428891299
"Infiniti Mall, Malad","Shop No 18, Lower Ground Floor, Link Road, Malad West, Infiniti Mall, Malad, Opposite Iphone Store, Mumbai, Maharashtra, 400064",Maharashtra,11:00 AM to 09:30 PM,,,7428891300
Panchsheel Square,"Shop No 4 & 5, Rajkamal Complex, Dhantoli, Dhantoli, Near Panchsheel Square, Nagpur, Maharashtra, 440012",Maharashtra,11:00 AM to 09:00 PM,,,8929310929
Seawoods,"Shop No 61 & 62, Shelter Arcade, Seawoods Sector 42, Seawoods Sector 42, Navi Mumbai, Maharashtra, 400706",Maharashtra,11:00 AM to 09:00 PM,,,7303560561
"Oriana Crest, Wakad","Shop No 3, Oriana Crest, Datta Mandir Road, Postal Colony, Wakad, Wakad, Opp Vitalife, Pune, Maharashtra, 411057",Maharashtra,11:00 AM to 09:30 PM,,,7303546547
"Prozone Mall, Aurangabad","P 80, Prozone Mall, Unit No G 53, Midc Api Road, Chilkalthana, Near Mcdonalds, Aurangabad, Maharashtra, 431210",Maharashtra,11:00 AM to 09:30 PM,,,7428891313
Satara Road,"Shop No E2/E3, Manali Arcade, Satara Road, Parvati, Besides Dmart, Pune, Maharashtra, 411009",Maharashtra,11:00 AM to 09:30 PM,,,7428891324
City Centre Mall,"Mfs 8 B, Lower Ground Floor, , Untwadi Road, City Centre Mall, Nashik, Maharashtra, 422022",Maharashtra,11:00 AM to 09:30 PM,,,7428891325
Ratnagiri,"Shop No 2 Cs, No 625, Kala Exuberance, Ambekarwadi, Near Shivaji Nagar Bus Stop, Ratnagiri, Maharashtra, 415639",Maharashtra,11:00 AM to 09:30 PM,,,8447845642
Mira Road,"Shop No 6, 7 & 001, Building No 61/62, Sector 1, Shanti Nagar, Mira Road East, Near Station Road, Mumbai, Maharashtra, 401107",Maharashtra,11:00 AM to 09:00 PM,,,7428891332
Sector 9 Ghansoli,"Shop No 10, Trishul Gold Coast, Plot No 13, 14/15, Sector 9, Ghansoli, Navi Mumbai, Maharashtra, 400701",Maharashtra,11:00 AM to 09:30 PM,,,8929289728
Gupte Road Dombivali West,"Shop No A2, Channur Bhavan Royal Chemist, Vishnu Nagar, Navi Dombivali Gupte Road, Dombivali West, Mumbai, Maharashtra, 421202",Maharashtra,11:00 AM to 09:00 PM,,,9711602948
Pimple Saudagar,"Shop No 3, Kingstone Avenue, Pimple Saudagar, Samrat Nagar, Opposite Govind Garden, Pune, Maharashtra, 411027",Maharashtra,11:00 AM to 09:30 PM,,,7428891334
Nala Sopara,"Shop No 57,58,59 & 60, Shanti Life Space, Sector Iv, Building No 5, Yashwant Viva Township, New Alkapuri, Link Road, Nalasopara East, Nalasopara East, Welness Forever Medical Shop, Palghar, Maharashtr",Maharashtra,11:00 AM to 09:00 PM,,,9319361051
Kamothe,"Shop No 3, Ambe Sharddha, Chs Main Road Sector-34, Kamothe, Kamothe, Navi Mumbai, Maharashtra, 410206",Maharashtra,11:00 AM to 09:30 PM,,,9821311593
Virar,"Shop No 8,9,10,, Evershine Homes Avenue, Global City, Evershine Homes Avenue, Opposite Agarwal Complex, Virar, Maharashtra, 401303",Maharashtra,11:00 AM to 09:00 PM,,,8929766192
Usmanpura,"Shop Number 5, Ventigo Complex, Usmanpura, Opposite Bank Of Baroda, Aurangabad, Maharashtra, 431005",Maharashtra,11:00 AM to 09:30 PM,,,8376801264
Chandrapur,"Below Punjab National Bank, Main Road, Jatpura Gate, Jatpura Gate, Chandrapur, Maharashtra, 442402",Maharashtra,11:00 AM to 09:00 PM,,,8447805284
Maxus Mall Bhayandar,"Shop No G17/A, Maxus Mall, Plot No 677, Temba Hospital Road, Bhayandar, Maxus Mall, Thane, Maharashtra, 401105",Maharashtra,11:00 AM to 09:30 PM,,,8447934583
Korum Mall,"Shop No F/14, Korum Mall, Mangal Pandey Road, Next To Nitin Company, Thane, Maharashtra, 400606",Maharashtra,11:00 AM to 09:30 PM,,,7428891347
Phoenix Market City Mall,"Shop No 61A, Second Floor, Phoenix Market City Mall, Viman Nagar, Viman Nagar, Near Mcdonalds, Pune, Maharashtra, 411014",Maharashtra,11:00 AM to 09:30 PM,,,7428891309
"Phoenix Market City Mall, Kurla","Shop No F5, First Floor, Lbs Marg, Phoenix Market City Mall, Kurla West, Mumbai, Maharashtra, 400070",Maharashtra,11:00 AM to 09:30 PM,,,7428891011
Kachore Goan Kalyan,"Shop No 7 & 8, Shivom Galaxy, Pisavli Village, Nandivali, Kachore Goan, Kachore Goan, Near Amaya Hospital, Kalyan, Maharashtra, 421306",Maharashtra,11:00 AM to 09:00 PM,,,8447941928
Yavatmal,"Shop No 8, Westend Mall, State Bank Chowk, Dhamangaon Road, Sbi Square, Westend Mall, Yavatmal, Maharashtra, 445001",Maharashtra,11:00 AM to 09:00 PM,,,9654014645
Aundh,"Shop No 2, First Floor, Westend Center 3, Nagras Road, Aundh, Opposite Westend Riverview Apartments, Pune, Maharashtra, 411007",Maharashtra,11:00 AM to 09:30 PM,,,7428891032
Kandivali East,"Shop No 44, Centrium, Lokhandwala Township, Kandivali East, Near Centrium Mall, Mumbai, Maharashtra, 400101",Maharashtra,11:00 AM to 09:00 PM,,,7428891353
Karanjade Panvel,"Shop No 21&22, Sai Vrindavan Chs, Plot No 164, Sector 4, Karanjade, Panvel, Navi Mumbai, Maharashtra, 410206",Maharashtra,11:00 AM to 09:30 PM,,,9667044045
Kasarvadavali,"Shop No 10 & 11, Ground Floor, Kasar Vadavali Village, Thane, Maharashtra, 400615",Maharashtra,11:00 AM to 09:30 PM,,,8652819283
Viman Nagar,"Shop No 4, Alfa Premio, Plot No 71, Village Lohegoan, Viman Nagar, Opposite Khalsa Dairy, Pune, Maharashtra, 411014",Maharashtra,11:00 AM to 09:30 PM,,,7428891357
Akola,"Necklace Road, Ratanlal Plot, Necklace Road, Next To Ekta Jwellers, Akola, Maharashtra, 444001",Maharashtra,11:00 AM to 09:00 PM,,,8929335926
Andheri West,"Shop No 2, Shiv Ashish Chs, Irla Bridge, Sv Road, Andheri West, Near Bharat Petroleum, Mumbai, Maharashtra, 400058",Maharashtra,11:00 AM to 09:00 PM,,,7428891052
"Sector 17, Vashi","Shop No 2, Ground Floor, Ashiana, Plot No 15, Vashi, Sunflower Road, Mumbai, Maharashtra, 400703",Maharashtra,11:00 AM to 09:00 PM,,,7428891053
Nexus Seawoods,"Unit No Ff 53/54 , First Floor, Sector 40, Nexus Seawoods, Opposite Pantaloons, Navi Mumbai, Maharashtra, 400706",Maharashtra,11:00 AM to 10:00 PM,,,7428891364
Nerul,"Shop No 7 & 8, Shankar Thakur Sadan, Plot No 22 & 23, Nerul, Nerul West, Near Cake Factory, Navi Mumbai, Maharashtra, 400706",Maharashtra,11:00 AM to 09:00 PM,,,8929330320
Thane West,"Shop No G/13, Niharika Shopping Center, Gladys Alvares Road, Pokhran 2, Thane West, Opposite Lok Puram School, Mumbai, Maharashtra, 400610",Maharashtra,11:00 AM to 09:00 PM,,,7428891056
Westend Mall,"Shop No 22A, Upper Ground Floor, Near Parihar Chowk, Aundh, Westend Mall, Next To Jockey, Pune, Maharashtra, 411007",Maharashtra,11:00 AM to 09:30 PM,,,7428891369
Bail Bazar,"Shop No 16, Aum Supreme, Plot No 4 To 9, Bail Bazaar, Bail Bazar, Next To D-Mart, Kalyan, Maharashtra, 421301",Maharashtra,11:00 AM to 09:00 PM,,,9818771621
Hinjewadi,"Shop No 6/12A, Mulshi Road, Phase 1, Sector 6, Hinjewadi, Near Shell Petrol Pump, Pune, Maharashtra, 411057",Maharashtra,11:00 AM to 09:30 PM,,,7428891371
Borivali West,"Shop No 3, Sai Leela Chs, SV Road, Borivali West, Mumbai, Maharashtra, 400092",Maharashtra,11:00 AM to 09:30 PM,,,7428891062
Tilak Road,"Nikhil Pride, 2040/1/2, Sadashiv Peth, Tilak Road, Tilak Road, Near Abhinav College, Pune, Maharashtra, 411030",Maharashtra,11:00 AM to 09:30 PM,,,7428890173
Borivali,"Shop No 2&3, Ground Floor, Geetanjali Apartment, Ramdas Sutrale Marg, Borivali West, Borivali West, Near Icici Bank, Mumbai, Maharashtra, 400092",Maharashtra,11:00 AM to 09:30 PM,,,9818301622
Vishal Nagar,"Shop No 5, Aishwarya Trade Center, Pimple Nilakh, Vishal Nagar, Opposite Pune Royal Hotel, Pune, Maharashtra, 411027",Maharashtra,11:00 AM to 09:30 PM,,,8447827353
Chembur,"11A, Ground Floor, Rajhans Building, Narayan Gajanan Acharya Marg, Chembur East, Opposite Chembur Railway Station, Mumbai, Maharashtra, 400071",Maharashtra,11:00 AM to 09:00 PM,,,7428891069
Kharadi,"Shop No 11, Ground Floor, Pradeep Plaza, Dhole Patil Farm Road, Kharadi, Opposite Ganga Constella, Pune, Maharashtra, 411014",Maharashtra,11:00 AM to 09:30 PM,,,7290921390
Chembur,"Shop No 2, Ganesh Bhuvan, Dk Sandu Marg, Chembur, Chembur, Opposite Icici Bank, Mumbai, Maharashtra, 400071",Maharashtra,11:00 AM to 09:00 PM,,,9667267268
Sanpada,"Shop No 3, Plot No 4/6, Seawoods Garden Chs, Sector 17, Sanpada, Sanpada, Navi Mumbai, Maharashtra, 400705",Maharashtra,11:00 AM to 09:00 PM,,,9582584546
Manewada Nagpur,"Plot No 176, Balaji Nagar, Venu Corner, Manewada Road, Manewada Road, Nagpur, Maharashtra, 440027",Maharashtra,11:00 AM to 09:00 PM,,,8929306411
Karad,"469, A1, Shanivar Peth, Talbhag, Opposite P.G Shah Petrol Pump, Karad, Maharashtra, 415110",Maharashtra,11:00 AM to 09:30 PM,,,8447912523
"Hilton, New Panvel","Shop No 14, Plot No 140, Sector 1 S, New Panvel East, Near D Mart, Navi Mumbai, Maharashtra, 410206",Maharashtra,11:00 AM to 09:30 PM,,,8929174802
Warje,"P One, Serve No 117/1, Warje, , Warje, Near Mai Mangeshkar Hospital, Pune, Maharashtra, 411058",Maharashtra,11:00 AM to 09:30 PM,,,9910181668
Bytco Point,"Shop No 2& 3, Shravan Co-Society Ltd, Village Deolali Tal, Bytco Point, Government Colony, Bytco Point, Nashik, Maharashtra, 422101",Maharashtra,11:00 AM to 09:30 PM,,,8929227207
Malad East Mumbai,"Shop No 1 & 2, Ganesh Bhuvan, Daftary Road, Malad East, Malad East, Mumbai, Maharashtra, 400097",Maharashtra,11:00 AM to 09:00 PM,,,8929306562
Vasai,"Shop No 5, Marvel Building Broadway, Vasai East, Virar, Vasai, Opposite Carnival Cinema, Mumbai, Maharashtra, 401208",Maharashtra,11:00 AM to 09:00 PM,,,8447745125
Sutgirni Chowk,"Shop No 16, Space Olampia, Sutgirni Chowk, Aurangabad, Maharashtra, 431005",Maharashtra,11:00 AM to 09:30 PM,,,9319361995
NRI layout,"No 06, Double Road, Nri Layout, Ramamurthy Nagar, Bengaluru, Karnataka, 560016",Karnataka,10:30 AM to 09:30 PM,,,7065122333
Thammenahalli,"No 196 Mei Layout, 60Ft Main Road, Dassarahalli, Bengaluru, Karnataka, 560057",Karnataka,11:00 AM to 09:30 PM,,,8447895934
Kengeri Satellite,"Shop No 1443, First Main Road, Kengeri Satellite Town, Hoysala Circle, Bengaluru, Karnataka, 560060",Karnataka,11:00 AM to 09:30 PM,,,7428891103
Kumaraswamy Layout,"Shop No 1319, 50 Feet Main Rd, Kumaraswamy Layout, Sri Lakshmi Venkateshwara Arcade, Bengaluru, Karnataka, 560078",Karnataka,11:00 AM to 09:30 PM,,,7428891104
Empire Mall,"UG6 & UG8, MG Road, SDM Law College, Mangaluru, Karnataka, 575003",Karnataka,10:00 AM to 09:00 PM,,,7428890010
Uttarahalli Main Road,"Shop No 9/3, Site Number 46, , Uttarahalli Main Road, Next To Vodafone Showroom, Bengaluru, Karnataka, 560061",Karnataka,11:00 AM to 09:30 PM,,,7428891105
Flagship Store at Nagarbhavi,"Shop No 1441/1309, Rajanna Complex, Jnanabharathi Main Road, Jyothi Nagar, Nagarbhavi Circle, Bengaluru, Karnataka, 560072",Karnataka,11:00 AM to 09:30 PM,,,7428891106
Flagship Store Koramangala,"Shop No 116, Ground Floor, Khb Colony, 7Th Block, 80 Feet Road, 80 Ft Road, Koramangala, Opposite Hangover Brewery, Bengaluru, Karnataka, 560034",Karnataka,11:00 AM to 09:30 PM,,,8130384141
Mandya,"Ground Floor, Madhu Vachar Complex, Ashok Nagar, Opposite Mandya Railway Station, Mandya, Karnataka, 571401",Karnataka,11:00 AM to 09:00 PM,,,9821080315
Jalanagar,"Sno 890, 891, Plot No 294, Jalanagar, Near S R Colony Vijaypur, Bijapur, Karnataka, 586109",Karnataka,11:00 AM to 09:00 PM,,,8376801547
Banashankari,"Mamatha Complex, 80 Feet Road, Nagendra Block, Banashankari 1St Stage, Bengaluru, Karnataka, 560085",Karnataka,11:00 AM to 09:30 PM,,,7428890028
Court Road Gulbarga,"Shop No-19, 1St‚ Floor, Venkateshwara Marata Shetty, Kalaburgi, , Gulbarga Court Road, Near Forest Office, Gulbarga, Karnataka, 585102",Karnataka,11:00 AM to 09:00 PM,,,9319368896
HSR Layout,"Shop No 13, Pwd Quarters, 27Th Main, Agara, Sector 1, Hsr Layout, Next To Al-Daaz Hotel, Bengaluru, Karnataka, 560102",Karnataka,11:00 AM to 09:30 PM,,,7428890041
Sirsi,"Ground Floor, 247/A, Brs Arcade, Hospet Road, Uttara Kannada, Sirsi, Karnataka, 581402, Ground Floor, 247/A, Brs Arcade, Hospet Road, Uttara Kannada, Uttara Kannada, Sirsi, Karnataka, 581402",Karnataka,11:00 AM to 09:00 PM,,,9311773738
Rajaji Nagar 19th Main Road,"Ground‚ Floor No 50/2, 19Th Main Road, 1St Block, Rajaji Nagar, Bengaluru, Karnataka, 560010",Karnataka,11:00 AM to 09:30 PM,,,7065038241
"4th block, Jayanagar","Shravanee Bilss Municipal No 654/66, 11Th Main, 4Th Block, Jayanagar, Bengaluru, Karnataka, 560011",Karnataka,11:00 AM to 09:30 PM,,,84479 31951
Konena Agrahara,"Shop No 89/1, Ground Floor A M Plaza, Hal Old Airport Road, Konena Agrahara, Rajeshwari Theatre, Bengaluru, Karnataka, 560017",Karnataka,11:00 AM to 09:30 PM,,,7428891134
AECS Layout,"Shop No 302, 60 Feet Road, Kundanahalli, Aecs Layout, Near Post Office, Bengaluru, Karnataka, 560037",Karnataka,11:00 AM to 09:30 PM,,,7428891135
"Jeevan Beema Nagar, New Tippasandra","Shop No L 12, Lic Colony, Sector 11, Jeevan Beema Nagar, New Tippasandra, Opposite Nal Colony, Bengaluru, Karnataka, 560075",Karnataka,11:00 AM to 09:30 PM,,,7428891137
Chansandra,"#943, Dr Vishnuvardhan Road, Dwarakanagar, Channasandra, Rr Nagar, Chansandra, Near By Rnsit Engineering College, Bengaluru, Karnataka, 560098",Karnataka,11:00 AM to 09:30 PM,,,9319363820
Khade Bazar,"#3161, Khade Bazar Main Road, Khade Bazar, Near Maruti Mandir, Belagavi, Karnataka, 590001",Karnataka,11:00 AM to 09:00 PM,,,8447731811
Ramamurthy Nagar,"Shop No 3, Maruthi Complex, Ramamurthi Nagar Main Road, Ramamurthy Nagar, Near Ramamurthy Nagara Police Station, Bengaluru, Karnataka, 560016",Karnataka,11:00 AM to 09:30 PM,,,7428890074
Rajaji Nagar,"#179/Y Ground Floor, 12Th Main, 3Rd Block, Bashyam Circle Rajajinagar Nagar, Rajaji Nagar, 3Rd Block, Opposite To Ashirwad Supermarket, Bengaluru, Karnataka, 560010",Karnataka,11:00 AM to 09:30 PM,,,7428891138
Ullal Road,"Anjanadri Complex No 04, Ullal Main Road, Government Press Layout, Ullal Main Road, Near By Brahmashree Upahara, Bengaluru, Karnataka, 560056",Karnataka,11:00 AM to 09:30 PM,,,9319369831
Flagship Store Indiranagar,"1201, Ground Floor, Hal 2Nd Stage, Indiranagar, 100 Feet Road, Near Doopanahalli Bus Stop, Bengaluru, Karnataka, 560038",Karnataka,11:00 AM to 09:30 PM,,,7428890075
Jalahalli,"Shop No 7 & 8, Omc, Shabari Complex, Sm Road, Jalahalli, Near Ayyappa Temple, Opposite Csi Church, Bengaluru, Karnataka, 560057",Karnataka,11:00 AM to 09:30 PM,,,7428891140
Manipal,"Door No 16 122-B 5, Ground Floor, Ar Plaza, Syndicate Circle Manipal, Syndicate Circle Manipal, Manipal, Karnataka, 576104",Karnataka,11:00 AM to 09:00 PM,,,8447818933
"Jayanagar, 4th Block","Shop No 652, Esteem Kanaka Plaza, 11Th Main, 4Th Block, Jayanagar, Opposite Vijaya College, Bengaluru, Karnataka, 560011",Karnataka,11:00 AM to 09:30 PM,,,7428891152
URS Road,"Shop No 9, D Devaraja, Urs Road, Next To City Bus Stop, Mysuru, Karnataka, 570001",Karnataka,11:00 AM to 09:00 PM,,,7428890102
Maruthi Sevanagar,"No 85, Maruthi Sevanagar, Netaji Road, Kammanahalli Main Road, , Kammanahalli, Below Manappuram Finance Ltd, Bengaluru, Karnataka, 560084",Karnataka,11:00 AM to 09:30 PM,,,9319356498
Vidyaranyapura2,"#40, Narsipura Layout, Vidyaranyapura, Vidyaranyapura, Near Last Bus Stand, Bengaluru, Karnataka, 560097",Karnataka,11:00 AM to 09:00 PM,,,8929327348
Garuda Mall,"Unit No 106, First Floor, Magrath Road, Ashok Nagar, Bengaluru, Karnataka, 560025",Karnataka,11:00 AM to 09:30 PM,,,9582891429
Marenhalli Road,"1029/41, Ground Floor, R J Arcade, 9Th Block, 100 Feet Ring Road, Marenahalli Road, 9Th Block, Jayanagara, Marenahalli Road, Near Central Bank Of India, Bengaluru, Karnataka, 560041",Karnataka,11:00 AM to 09:30 PM,,,7290016070
Siddhartha Layout,"176, Gani Complex, Dr. Rajkumar Rroad, Raghavendra And Nazarbad Mohalla, Dr. Rajkumar Road, Opposite Shubodaya Hospital, Mysuru, Karnataka, 570011",Karnataka,11:00 AM to 09:00 PM,,,8929442765
Begur Main Raod,"149, Hongasandra, Begur Main Road, Hongasandra, Begur Main Raod, Bengaluru, Karnataka, 560068",Karnataka,11:00 AM to 09:30 PM,,,8587908948
Mantri Mall Malleswaram,"Lg1, Ground Floor, Mantri Square Mall, Sampige Road, Malleswaram, Bengaluru, Karnataka, 560003",Karnataka,11:00 AM to 09:30 PM,,,9718430381
Mudhol,"C S No 3132/2B And 3141/2, Ground Floor, First Main Road, Mudhol, Mudhol, Karnataka, 587313",Karnataka,11:00 AM to 09:00 PM,,,8929337327
Gopalan Signature Mall,"Shop No 6, 1St Floor, Gopalan Signature Mall, Cv Raman Nagar, Opposite Rmz Infinity, Old Madras Road, Bengaluru, Karnataka, 560038",Karnataka,11:00 AM to 09:30 PM,,,7428891163
RK Hegde Nagar,"Site No 74, M.C.E.C.H.S Layout, 1St Phase, Rk Hegde Nagar, Rk Hegde Nagar, Behind Karnataka Bank, Bengaluru, Karnataka, 560077",Karnataka,11:00 AM to 09:30 PM,,,8929288248
Flagship Store at BTM Layout,"Shop No 938, 16Th Main Road, Btm 2Nd Stage, Stage 2, Btm Layout, Btm Layout, Bengaluru, Karnataka, 560076",Karnataka,11:00 AM to 09:30 PM,,,7428891164
Horamavu,"Building No 33, Horamavu Main Road, Banasawadi, Horamavu, Opposite Poorvika Mobiles, Bengaluru, Karnataka, 560043",Karnataka,11:00 AM to 09:30 PM,,,9319367919
Sindhanur,"C M C No- 6-1-1926, Ashapuri Complex, Gangavathi Road, Sindhanur, Sindhanur, Opposite Axis Bank, Raichur, Karnataka, 584128",Karnataka,11:00 AM to 09:00 PM,,,8929338697
Electronic City Phase 1,"Sn 4C, Velankani Information Sys Pvt Ltd, , Electronic City Phase 1, Opposite Velankani Tech Park, Gate No 3, Bengaluru, Karnataka, 560100",Karnataka,11:00 AM to 09:30 PM,,,7428890118
Malleshpalya CV Raman Nagar,"No 38/1 9Th Main, Malleshapalya, New Thippsandra Post, Malleshpalya, Near Nile Institue Of Languages And Education, Bengaluru, Karnataka, 560075",Karnataka,11:00 AM to 09:30 PM,,,7303161162
Konanakunte,"Anjanapura Main Road, Konanakunte Cross, Konanakunte, Opposite Hdfc Bank, Bengaluru, Karnataka, 560062",Karnataka,11:00 AM to 09:30 PM,,,8929266341
"Club Road, Hubli","Shop No 4, Sona Chambers, Club Road, Deshpande Nagar, Opposite Karnataka Wine Mart, Hubli, Karnataka, 580029",Karnataka,11:00 AM to 09:00 PM,,,7428890126
Dharwad,"Ground Floor, Pb Road, Near Jubilee Circle Bus Stop, Court Circle, Dharwad, Karnataka, 580001",Karnataka,11:00 AM to 09:00 PM,,,8448440316
Jakkur,"Plot No 222, Survey No 98/3, 7Th Block, Jakkur Arkavathy Layout, Jakkur Arkavathy Layout, Next To Apollo Pharmacy, Bengaluru, Karnataka, 560068",Karnataka,11:00 AM to 09:30 PM,,,8929341208
Lulu Global Mall,"Lulu Global Mall, Minerva Mills Compound, Rajajinagar, Opposite Sujata Theatre, Bengaluru, Karnataka, 560023",Karnataka,10:30 AM to 09:30 PM,,,8061035660
Anekal Town,"7, Old Mysore Bank Road, Anekal Town, Anekal Town, Bengaluru, Karnataka, 562106",Karnataka,11:00 AM to 09:30 PM,,,8929345106
Flagship Store at JP Nagar,"Shop No 300, Outer Ring Road, 5Th Phase, 15Th Cross Road, Jp Nagar, Near Cafe Coffee Day, Bengaluru, Karnataka, 560078",Karnataka,11:00 AM to 09:30 PM,,,7428890132
Nagadevanahalli,"No 7 & 8, 100Ft Feet Road, Nagadevanahalli, Kengeri, Nagadevanahalli, Near Bharat Petrol Pump, Bengaluru, Karnataka, 560056",Karnataka,11:00 AM to 09:30 PM,,,8929275902
Flagship Store at Marathahalli,"G3/G4, Sigma Arcade, Marathahalli, Near Tulsi Theatre, Bengaluru, Karnataka, 560037",Karnataka,11:00 AM to 09:30 PM,,,7428890133
New Bel Road,"Shop No 11, Ground Floor, 2Nd Stage, New Bel Road, Chikkamaranahalli, Chikkamaranahalli, Near Ramachandra Convention Hall, Bengaluru, Karnataka, 560094",Karnataka,11:00 AM to 09:30 PM,,,7428890134
Moodalapalya,"No 166, Moodalapalya, Nagarbhavi Main Road, Madhura Nagar, Moodalapalya, Bengaluru, Karnataka, 560070",Karnataka,11:00 AM to 09:30 PM,,,8447822969
SIT Tumkur,"No 2164/796, Sit Main Road, Sit Main Road, Near 11Th Cross, Tumkur, Karnataka, 572103",Karnataka,11:00 AM to 09:00 PM,,,8929344598
Flagship Vidyaranyapura Road,"1242, Bel Layout, Vidyaranyapura Road, Opposite First Block Bus Stop, Bengaluru, Karnataka, 560097",Karnataka,11:00 AM to 09:30 PM,,,7428890144
HSR Layout,"2799/2800, Ground Floor, 27th Main, Sector 1, HSR Layout, Bengaluru, Karnataka, 560102",Karnataka,11:00 AM to 09:30 PM,,,9718519385
Ayodhya Nagar,"4833/12B, Hadgal Complex, Ayodhya Nagar, Dr B.R Ambedkar Road, Kolhapur Circle, Ayodhya Nagar, Beside Uk27 Hotel, Belagavi, Karnataka, 590001",Karnataka,11:00 AM to 09:00 PM,,,7428890148
"Gandhi Bazaar, Basavanagudi","Shop No 85/4, Vaibhav Apartments, , Gandhi Bazaar, Basavanagudi, Ramakrishna Ashram Circle, Bengaluru, Karnataka, 560004",Karnataka,11:00 AM to 09:30 PM,,,7428890150
Udupi,"Ground Floor, Mahalakshmi Towers, Court Road, Near Big Bazaar, Udupi, Karnataka, 576101",Karnataka,11:00 AM to 09:00 PM,,,8929346386
Sanjay Nagar,"Shop No 1, Gmr Layout,, D Rajagopal Road, Sanjay Nagar, Rmv Hospital, Geddalahalli, Bengaluru, Karnataka, 560094",Karnataka,11:00 AM to 09:30 PM,,,7428891199
Rajarajeshwari Nagar,"No 22/23, Ground Floor, TR Plaza, 2nd Cross, Halagevaderahalli, Shankarappa Layout, BEML 5th Stage, Rajarajeshwari Nagar, Bengaluru, Karnataka, 560098",Karnataka,11:00 AM to 09:00 PM,,,9711619095
Kaikondahalli,"Shop 7 & 8, Sno 19/10, Chikkabellandur Road, Carmelaram, Doddakaneli, Kaikondrahalli, Opposite Dmart, Bengaluru, Karnataka, 560035",Karnataka,11:00 AM to 09:30 PM,,,9311773743
General Cariappa Road,"Shop No 1861/A/846, Krishna Arcade, 2Nd Cross Road, General Cariappa Road, Next To Mg Road, K R Extension, Tumkur, Karnataka, 572101",Karnataka,11:00 AM to 09:00 PM,,,7428890166
Mathikere,"17, Ujjini Glitz, Hmt Main Road, Mathikere, , Mathikere, Next To Poorvika, Bengaluru, Karnataka, 560056",Karnataka,11:00 AM to 09:30 PM,,,8929121695
Flagship Store CMH Road Indiranagar,"S No 505, Ground Floor, Kheny Plaza, Indira Nagar 1st Stage",Karnataka,11:00 AM to 09:30 PM,,,9582611487
Sarjapur Natura Walk,"No 46, Yamare Village, Sarjapur Natura Walk Hobli, Anekal Taluk, Bengaluru, Karnataka, 562125",Karnataka,11:00 AM to 09:00 PM,,,9711984244
Cox Town,"Ground Floor, 32/1, Ramakrishnappa Road, Doddakunte Circle, Cox Town, Doddakunte Circle, Cox Town, Near Yamaha Service Center Cox Town, Bengaluru, Karnataka, 560005",Karnataka,11:00 AM to 09:30 PM,,,8929082316
Rajaji Nagar 2,"Shop No 706, Ground Floor, 2Nd Stage, 9Th Cross, Dr. Modi Road, Rajaji Nagar, Rajaji Nagar, Next To Hotel Kadamba, Bengaluru, Karnataka, 560086",Karnataka,11:00 AM to 09:30 PM,,,7428891210
Vijayanagar,"#41, 1st Floor, 17th Cross Road, MRCR Layout, Vijayanagar",Karnataka,11:00 AM to 09:30 PM,,,9582271461
Davanagere,"Shop No 289/5B, Am Arcade, , Davanagere, Vidyarthi Bhavan Circle, Davanagere, Karnataka, 577002",Karnataka,11:00 AM to 09:00 PM,,,7428890175
HSR Layout,"Ground Floor, D No 1312, 24Th Main, Sector 2, Hsr Layout, Bengaluru, Karnataka, 560102",Karnataka,11:00 AM to 09:30 PM,,,9811921498
Thanisandra,"Shop No 538, Ground Floor, Rachenahalli Road, Srk Nagar, Thanisandra, Bharath Petroleum Petrol Pump, Bengaluru, Karnataka, 560077",Karnataka,11:00 AM to 09:30 PM,,,7428891222
Hesarghatta Main Road,"Ground Floor, Sri Lakshmi Arcade, , Hesarghatta Main Road, Opposite Ammajj Kalyana Mantap, Bengaluru, Karnataka, 560073",Karnataka,11:00 AM to 09:30 PM,,,7428891223
"JP Nagar, Kothanur","No 10/2, 24Th Main Road, J P Nagar 6Th Phase, Sarakki Village, Kothanur, Kothanur, Bengaluru, Karnataka, 560078",Karnataka,11:00 AM to 09:30 PM,,,7428891136
Bagalkote,"Tp No 43, Ground Floor, N B Darbar Complex, Railway Station Road, Infront Of M M Joshi Eye Hospital, Bagalkote, Karnataka, 587101",Karnataka,11:00 AM to 09:00 PM,,,8448310311
Marathalli,"#88, Outer Ring Road, Near Flyover, Opposite Mega Store, Marathahalli, Marathahalli, Opposite Mega Store, Bengaluru, Karnataka, 560037",Karnataka,11:00 AM to 09:30 PM,,,9999761456
Sahakarnagar,"Ground Floor, No 2381, D Block, 60 Feet Road, Sahakar Nagar, Sahakar Nagar, Near Ccd & Sbi Bank, Bengaluru, Karnataka, 560092",Karnataka,11:00 AM to 09:30 PM,,,7838237265
Savalanga Road,"Shop No 2, Ground Floor, Jj Complex, , Savalanga Road, Near Usha Nursing Home, Shimoga, Karnataka, 577201",Karnataka,11:00 AM to 09:00 PM,,,7428890189
Hennur,"Ground Floor, Hennur Cross, Hennur Main Road, Hennur, Bengaluru, Karnataka, 560043",Karnataka,11:00 AM to 09:30 PM,,,8929338667
Flagship Store at Chandra Layout,"Shop No 106, 1St Main Road, Chandra Layout, Opposite Polar Bear, Bengaluru, Karnataka, 560040",Karnataka,11:00 AM to 09:30 PM,,,9643321229
Flagship Store at RR Nagar,"Shop No 826, Paramount Building, Beml 3Rd Stage, Rajarajeshwari Nagar, Opposite Dr. Ambedkar Park, Bengaluru, Karnataka, 560098",Karnataka,11:00 AM to 09:30 PM,,,7428891230
R T Nagar,"Ground Floor, No 5/3, 1St Main, 2Nd Cross, Rahmath Nagar, Rt Nagar Post, Rehmat Nagar, Opposite To India Oil Pump, Bengaluru, Karnataka, 560032",Karnataka,11:00 AM to 09:30 PM,,,7838195385
Jayanagar 9th Block,"Shop No 12/1, Sri Lakshmi Complex, 25Th Main, 9Th Block, Jayanagar, Near Jain College Rear Gate, Bengaluru, Karnataka, 560069",Karnataka,11:00 AM to 09:30 PM,,,7290080195
Forum Mall,"Shop No 8 & N 5, Lgf, Forum Mall, Hyder Ali Road, Nazarbad Mohalla, Mysuru, Karnataka, 570010",Karnataka,10:00 AM to 09:30 PM,,,7428891237
Varthur,"No 184/1, Varthur Main Road, Varthur Village, Varthur Village, Near Vinayaka Theatre, Bengaluru, Karnataka, 560087",Karnataka,11:00 AM to 09:30 PM,,,8929085950
Kothanur,"#1,2 Hennur Main Road, Kothanur, Near Bharat Petroleum, Bengaluru, Karnataka, 560077",Karnataka,11:00 AM to 09:30 PM,,,8929440588
Harlur Main Road,"#2466/2310, 4, 4(B), 3(B), G2, Ground Floor, Anjanadri Sriharsh, Harlur Main Road, Harlur Main Road, Anjanadri Sriharsh, Bengaluru, Karnataka, 560102",Karnataka,11:00 AM to 09:30 PM,,,9654531512
Coles Road,"86/3, Ground Floor, Coles Road, Cleveland Town, Pulikeshi Nagar, Coles Road, Bengaluru, Karnataka, 560005",Karnataka,11:00 AM to 09:30 PM,,,9548147148
Vidya Nagar,"35498/23, Vidya Nagar, Ramakrishna Layout, Unkal Village, Vidya Nagar, Hubli, Karnataka, 580030",Karnataka,11:00 AM to 09:30 PM,,,8929342563
Orion Mall Gateway,"Shop No 106, First Floor, Brigade Gateway, Malleshwaram West, Orion Mall Gateway, Bengaluru, Karnataka, 560055",Karnataka,10:30 AM to 10:00 PM,,,7428891251
Balagere,"Ground Floor Old Katha No 290/31/2/02/02, New No 31/2, Balagera Main Road, Varthur Ward No 149, Bengaluru, Karnataka, 560087",Karnataka,11:00 AM to 09:30 PM,,,9148982158
Varthur,"No 6, C Block Green Field Hub Hoskote, Seegahalli, Whitefield, , Seegahalli, Bengaluru, Karnataka, 560067",Karnataka,11:00 AM to 09:30 PM,,,8929032767
Brestwarpet,"No 11-2-61 & 62, Sangeeta Arcade, Bresthwarpet, Near Gandhi Chowk, Bresthwarpet, Opposite Kanva Hospital, Raichur, Karnataka, 584101",Karnataka,11:00 AM to 09:00 PM,,,7428890217
Gokak,"Shop No 1, Anand Talkies Road, Hospet Galli, Near Anmol Hotel Complex, Gokak, Karnataka, 591307",Karnataka,11:00 AM to 09:00 PM,,,8929261493
Kolar,"No 962 & 963, Nagaraj Building Gandhivana, Mg Road, Near Town Police Station, Kolar, Karnataka, 563101",Karnataka,11:00 AM to 09:00 PM,,,8929270250
T C Palya,"Shop No 11/2, Lorven Leo Apartments, Tc Palya Main Road, K R Puram, Near Axis Bank, Bengaluru, Karnataka, 560016",Karnataka,11:00 AM to 09:30 PM,,,7428891259
Mall Of Mysore,"C1, First Floor, Mall Of Mysore, FF14, MG Road, Indiranagar Extension, Nazarbad Mohalla, Near Mysuru Race Club, Mysuru, Karnataka, 570010",Karnataka,10:00 AM to 09:30 PM,,,8971565749
Indiranagar 2,"Shop No 483, Signature Square, 100 Feet Road, Indiranagar, Near Pizza Hut, Bengaluru, Karnataka, 560038",Karnataka,11:00 AM to 09:30 PM,,,7428891266
Infantry Road,"Plot No 15, Ground Floor, Infantry Road, Near Vasavi High School, Ballari, Karnataka, 583101",Karnataka,11:00 AM to 09:00 PM,,,7428890235
RR Nagar,"1163, Nehru Road, Beml 3Rd Stage, Rajarajeshwari Nagar, Bengaluru, Karnataka, 560098",Karnataka,11:00 AM to 09:00 PM,,,7065264576
Ballari,"Plot No 09, New Ward No 01, Parvathi Nagar, Ballari, Parvathi Nagar, Near Hdfc Bank, Ballari, Karnataka, 583103",Karnataka,11:00 AM to 09:00 PM,,,7428890262
Kuvempu Nagar,"Ground Floor, Asian Bussines Center, Kuvempu Nagar, Beside Asian Mall, Kalaburagi, Karnataka, 585102",Karnataka,11:00 AM to 09:00 PM,,,7428890243
Flagship Store at Banaswadi,"Shop No 19B, Ground Floor, Tamarind, 100 Feet Road, Banaswadi, Opposite Bata Showroom, Bengaluru, Karnataka, 560043",Karnataka,11:00 AM to 09:30 PM,,,7428891283
Heggannahalli,"No 170, Hegganahalli, Main Road, Vishwaneedam Post, Heggannahalli, Opppsite New Udupi Grand, Bengaluru, Karnataka, 560091",Karnataka,11:00 AM to 09:30 PM,,,7428890264
Bhartiya City Mall,"Upper Ground Floor 35, Bhartiya City Mall, Chhokkanahalli Village, Yelahanka Hobli Bhartiya City, Thanisandra Main Road, Bengaluru, Karnataka, 560064",Karnataka,10:00 AM to 10:00 PM,,,8068365552
Royal Meenakshi Mall,"Shop No S5, Second Floor, Bannerghatta Main Road, Royal Meenakshi Mall, Bengaluru, Karnataka, 560076",Karnataka,11:00 AM to 09:30 PM,,,7428891286
Ramamurthy Nagar,"Ground Floor, Chinnappa Layout, Main Road, Bovi Colony, Ramamurthy Nagar, Bengaluru, Karnataka, 560016",Karnataka,11:00 AM to 09:30 PM,,,9319375299
Ganga Nagar,"Ground Floor, Ganga Nagar, Cbi Road, Hmt Layout, Hebbal, Hebbal, Opposite Shrine Of St.Jude Thaddeus Church, Bengaluru, Karnataka, 560032",Karnataka,11:00 AM to 09:30 PM,,,9643381477
Jigani,"No 49 1St Phase, Near Apc Circle, Jigani Industrial, Bannerghatta Anekal Road, Jigani, Jigani Industrial, Near Dominos Jigani, Bengaluru, Karnataka, 560105",Karnataka,11:00 AM to 09:30 PM,,,8929342533
RMZ Galleria Mall,"Lower Ground Floor, Ambedkar Colony, Rmz Galleria Mall, Opposite Tanishq, Bengaluru, Karnataka, 560064",Karnataka,11:00 AM to 10:00 PM,,,7428891292
Singasandra,"A Block, Aecs Layout, Singasandra, Singasandra, Bengaluru, Karnataka, 560068",Karnataka,11:00 AM to 09:30 PM,,,8929344659
Flagship Store HSR Layout,"Shop No 16, 17Th Cross Road, 9Th Main, Sector 7, Hsr Layout, Behind Bda Complex, Bengaluru, Karnataka, 560102",Karnataka,11:00 AM to 09:30 PM,,,7428891293
Flagship Store Doddakannahalli,"Shop No 121/3, Supreme Arcade, Sarjapur Road, Doddakannahalli, Next To Indian Oil Petrol Pump, Bengaluru, Karnataka, 560035",Karnataka,11:00 AM to 09:30 PM,,,9654731294
Flagship Store Jayanagar,"No 242/29, First Floor, Manandi Arch, 9Th Main Road, 3Rd Block, East Jayanagar, Jayanagar, Bengaluru, Karnataka, 560011",Karnataka,11:00 AM to 09:30 PM,,,9811271534
Udgir Road,"CMC No 8-9-448, Kamshetty Complex, Udgir Road, Bidar, Karnataka, 585403",Karnataka,11:00 AM to 09:00 PM,,,7303815816
Tilakwadi,"Shop No 1049/A/1, Swami Samarth Arcade, Khanapur Road, Tilakwadi, Near Datt Mandir, Belgaum, Karnataka, 590006",Karnataka,11:00 AM to 09:00 PM,,,7428890256
"Bhuvaneswari Nagar, Hebbal","Ground Floor, Siri Square 26, 4Th A Croos, Dasarahalli Main Road, Bhuvaneshwari Nagar, Hebbal, Bhuvaneshwari Nagar, Hebbal, Bengaluru, Karnataka, 560024",Karnataka,11:00 AM to 09:30 PM,,,7303577578
Bagalur,"Ground Floor, 2Nd Cross, Bagalur Main Road, Vinayak Nagar, Kattigenahalli, Bagalur Main Road, Bengaluru, Karnataka, 560064",Karnataka,11:00 AM to 09:30 PM,,,8587908848
Davanagere,"Door No 2767, MCC B Block, 3Rd Cross, Davanagere, Karnataka, 577004",Karnataka,11:00 AM to 09:00 PM,,,7303633634
Koppikar Road,"Shop No 10, Ground Floor, Eureka Corner, Koppikar Road, Eureka Building, Hubli, Karnataka, 580020",Karnataka,11:00 AM to 09:00 PM,,,7428890260
Wilson Garden Road,"No 5 & Old No 165, 4Th Main, Wilson Garden Road, Wilson Garden, Beside Hotel Prashanth, Bengaluru, Karnataka, 560027",Karnataka,11:00 AM to 09:30 PM,,,8929808984
KR Puram,"Ground Floor No 198/A, Shankar Mutt Road, Kr Puram, Kr Puram, Hassan, Karnataka, 573201",Karnataka,11:00 AM to 09:00 PM,,,7303457458
Basaveshwara Nagar,"#579, Shankari Avenue, Siddaiah Puranik Road, 3Rd Stage, 4Th Block, Basaveshwaranagar, Basaveshwaranagar Main Road, Bengaluru, Karnataka, 560079",Karnataka,11:00 AM to 09:30 PM,,,9582670929
Forum Shantiniketan Mall,"Shop No 5, Lower Ground Floor, Forum Shantiniketan Mall, Itpl Main Road, Opposite Manipal Hospital, Whitefield, Bengaluru, Karnataka, 560067",Karnataka,10:00 AM to 10:00 PM,,,9643991310
Dharwad,"No 494/B/16/G, G-1, Nh-4, Pb Road, Shivananda Nagar, Shivananda Nagar, Near Hubli Toll Naka, Dharwad, Karnataka, 580004",Karnataka,11:00 AM to 09:00 PM,,,8929335375
JP Nagar 8th Phase,"No 30/A 3Rd, Block Layout, Jp Nagar 8Th Phase, Jp Nagar, Near Vishal Mart, Bengaluru, Karnataka, 560076",Karnataka,11:00 AM to 09:30 PM,,,8447914974
Ayyapanagar,"#1 & 2, Surya Manson, Ayyappa Nagar, Kodigehalli Road, Krishnarajapura, Bengaluru, Karnataka, 560049",Karnataka,10:00 AM to 09:30 PM,,,9148982155
"Flagship Store JP Nagar, 7th Phase","Shop No 17, Rbi Layout, , Jp Nagar, 7Th Phase, Karnataka Bank, 10Th A East Cross Road, Bengaluru, Karnataka, 560078",Karnataka,11:00 AM to 09:30 PM,,,7428891314
Sultanpalya,"No 43, Shop No 1&2, Sultan Palya Main Road, Rt Nagar, Rt Nagar, Near Laxmi Gold Paradise, Bengaluru, Karnataka, 560032",Karnataka,11:00 AM to 09:30 PM,,,8929328753
Kuvempunagara,"Mig 2, Ground Floor, New Kantharaja Urs Road, Kuvempunagara, Near Sri S. Nijalingappa Circle, Mysuru, Karnataka, 570023",Karnataka,11:00 AM to 09:00 PM,,,7428890271
Sharan Nagar,"Parekh Arcade, Sharan Nagar, Lingad Gudi Road, Near Signature Mall, Bijapur, Karnataka, 586103",Karnataka,11:00 AM to 09:00 PM,,,7428890272
Mallathalli,"No 5 & 6, Gidada Konnenahalli, Muddinapalya Main Road, ITI Layout, Mallathalli, Bengaluru, Karnataka, 560091",Karnataka,11:00 AM to 09:30 PM,,,8447930692
Devanahalli,"Matru Arcade, 333 19Th Ward, Bb Road, Devanahalli Town, Devanahalli Town, Bengaluru, Karnataka, 562110",Karnataka,11:00 AM to 09:30 PM,,,8929436426
Gorrepalya,"No 15 Balaji Nagar, Magadi Main Road, Vishwaneedam Post Bydrahalli, Magadi Main Road Vishwaneedam, Opposite College Stop, Bengaluru, Karnataka, 560091",Karnataka,11:00 AM to 09:30 PM,,,8929306414
Flagship Store Banashankari,"Shop No 214, 15Th Main, 24Th Cross, Banashankari 2Nd Stage, Near Bda Complex, Bengaluru, Karnataka, 560070",Karnataka,11:00 AM to 09:30 PM,,,7428891328
Andrahalli,"Ground Floor, 38 Md Complex, Doddanna Layout, Andrahalli, Bengaluru, Karnataka, 560091",Karnataka,11:00 AM to 09:30 PM,,,8929327932
New Bel Road,"No 004/B, Ground Floor, Devasandra Layout, New Bel Road, New Bel Road, Next To Subway, Bengaluru, Karnataka, 560094",Karnataka,11:00 AM to 09:30 PM,,,7303563564
Btm Layout,"Shop No 2, Building No 805/A, Pid No-65-94-805/A, 7Th Cross Road, Btm Layout, 2Nd Stage, Btm Layout, Opposite Wild Craft, Bengaluru, Karnataka, 560076",Karnataka,11:00 AM to 09:30 PM,,,8929261833
Flagship Store Kathriguppe,"#4, 80Ft Road, 6Th Block, 3Rd Phase, Srinivasnagar, Banashankari, Banashankari, Near Big Bazaar, Bengaluru, Karnataka, 560085",Karnataka,11:00 AM to 09:30 PM,,,8447725949
Saraswathipuram,"2904/1, Khada No Ch 66, Kantharaj Urs Road, Saraswathipuram, Saraswathipuram, Beside Fire Brigade, Mysuru, Karnataka, 570009",Karnataka,11:00 AM to 09:00 PM,,,8929342669
Gangavathi,"17Th Ward, 4-1-57/A Mirajkar Complex, Bus Stand Road, Opposite Yashodha Hospital, Gangavathi, Karnataka, 583227",Karnataka,11:00 AM to 09:00 PM,,,8929337386
Malleshwaram,"Ground Floor, 2Nd Main Road, Sampige Road, Malleshwaram, Malleshwaram, Bengaluru, Karnataka, 560036",Karnataka,11:00 AM to 09:30 PM,,,9818841601
Flagship Store Kammanahalli,"Ground Floor, 4Th Cross, 2Nd Block, Vp Plaza Mall, Kalyan Nagar, Kammanahalli, Opposite Shoba Central, Bengaluru, Karnataka, 560043",Karnataka,11:00 AM to 09:30 PM,,,7428891338
Ayyappa Nagar,"#2, Gokul Mansion, Ayyappa Nagar, Devasandra, Kr Puram, Ayyappa Nagar, Opposite Krishna Community Hall, Bengaluru, Karnataka, 560036",Karnataka,10:30 AM to 09:30 PM,,,8448221596
Kasavanahalli,"Shop No 53/1, Central Jail Road, Kasavanahalli, Sarjapur, Kasavanahalli, Opposite Vishnu Grand Hotel, Bengaluru, Karnataka, 560035",Karnataka,11:00 AM to 09:30 PM,,,7428891341
Udupi,"G4, Ground Floor, Mandavi Royal Prince, Kunjibettu, Opposite Kunjibettu Post Office, Udupi, Karnataka, 576102",Karnataka,11:00 AM to 09:00 PM,,,7428890295
Vijayanagar RPC Layout,"2373/B, SMS Arcade Building, Vijay Nagar, RPC Layout, Dub Road, Bengaluru, Karnataka, 560040",Karnataka,11:00 AM to 09:30 PM,,,08041440926
Flagship Store Electronic City,"Snn Raj Neeladri, Bettadasanapura, Near Neeladri Nagar, Electronic City, Bengaluru, Karnataka, 560100",Karnataka,11:00 AM to 09:30 PM,,,7428891348
Hulimavu,"Ground Floor, No 5, Dr Mv Road, 6Th Stage, 2Nd Block, Btm, Hulimavu, Opposite Nano Hospital, Bengaluru, Karnataka, 560076",Karnataka,11:00 AM to 09:30 PM,,,7428891350
Brigade Orion Uptown Mall,"Unit No108, First Floor, Brigade Orion Uptown Mall, Huskur Village, Bidaarahalli, Hobli, East Taluk, Hobli, Brigade Orion Uptown Mall, Bengaluru, Karnataka, 560049",Karnataka,10:30 AM to 10:00 PM,,,8447728798
Hospet,"Ward No 11, Door No 110A-110A1-110A2, College Road, Jabbal Area, Ballary, Hospet, Karnataka, 583201",Karnataka,11:00 AM to 09:00 PM,,,9717781353
Vijaya Bank Layout,"Ground Floor, 1000A, Vijaya Bank Layout, Opposite Vijaya Bank, Vijaya Bank Layout, Opposite Vijaya Bank Layout Main Park, Bengaluru, Karnataka, 560076",Karnataka,11:00 AM to 09:30 PM,,,7428891360
Bommanahalli,"Shop No 3, Ground Floor, Katha 461/447/439, Garebhavi Palya, Hosur Main Road, Near Domino'S Pizza, Bengaluru, Karnataka, 560068",Karnataka,11:00 AM to 09:30 PM,,,7428891361
Hanumantha Nagar,"9, L R Complex, 50 Feet Main Road, Avalahalli, Muneshwara Block, Banashankari, Avalahalli, L R Complex, Bengaluru, Karnataka, 560026",Karnataka,11:00 AM to 09:30 PM,,,8826001609
"Phoenix Market City Mall, Whitefield","Shop No F/68, 1St Floor, Whitefield Main Road, Mahadevpura, Phoenix Market City Mall, Bengaluru, Karnataka, 560048",Karnataka,10:00 AM to 09:30 PM,,,7428891060
Annapurneshwari Nagar,"Huliyappa Arcade 22, 2Nd Block, Nagarbhavi 2Nd Stage, Annapurneshwari Nagar, Annapurneshwari Nagar, Bengaluru, Karnataka, 560072",Karnataka,11:00 AM to 09:30 PM,,,8929471398
Bejai Road,"Ug13, 3W3-268/25, Marian Paradise Streak, Bejai Road, Bejai Road, Near Bejai Church, Mangaluru, Karnataka, 575004",Karnataka,11:00 AM to 09:00 PM,,,8929306412
Kalidasa Road,"Shop No 2813 D-1A, Ground Floor, Ganesh Arcade, Kalidasa Road, Above Green Leaf Hotel, Mysuru, Karnataka, 570002",Karnataka,11:00 AM to 09:00 PM,,,7428890303
Flagship Store Indiranagar 100 Ft Road,"2003/1-1, Arihant Building, Second Stage, Indiranagar 100Ft Road, Indiranagar 100Ft Road, Arihant Building, Bengaluru, Karnataka, 560008",Karnataka,11:00 AM to 09:30 PM,,,9821141600
Kanakapura Road,"Shop No 25/6/26/27/61, Ground Floor, Yelenchenahalli, Kanakpura Road, Near Yelenchanahalli Metro Station, Bengaluru, Karnataka, 560078",Karnataka,11:00 AM to 09:30 PM,,,8588911381
Prestige Falcon City Mall,"Shop No1, Prestige Falcon City Mall, Kanakapura Road, Anjanadri Layout, Konanakunte Cross Metro, Konanakunte, Prestige Falcon City Mall, Bengaluru, Karnataka, 560062",Karnataka,11:00 AM to 09:30 PM,,,8447731148
New Bellandur,"203/205, Mint Plaza, Ground Floor, Green Glen Layout, New Bellandur, New Bellandur, Next To Reliance Fresh, Bengaluru, Karnataka, 560103",Karnataka,11:00 AM to 09:30 PM,,,9971101619
Kankanady,"Rajsan Complex, Ground Floor, No 1-16/2-5, Pumpwell Road, Kankanady, Kankanady, Near Omega Hospital, Mangaluru, Karnataka, 575002",Karnataka,11:00 AM to 09:00 PM,,,8929310301
Forum Neighbourhood Mall,"Unit 222, Second Floor, Forum Neighbourhood Mall, Whitefield, Forum Neighbourhood Mall, Bengaluru, Karnataka, 560066",Karnataka,11:00 AM to 09:30 PM,,,7042401400
Tilakwadi,"Cts No 5647/1, Ground Floor, New Goods Shed Road, Khanapur Road, Opposite Fire Fighter Station Belgaum, Belagavi, Karnataka, 590011",Karnataka,11:00 AM to 09:00 PM,,,8447838623
Flagship Store at Yelahanka,"948, Vln Square, Lig 2Nd Satge, 16Th B Cross Road, 2Nd Stage, Yelahanka New Town, Yelahanka, Near Sri Raghavendra Nursing Home, Bengaluru, Karnataka, 560064",Karnataka,11:00 AM to 09:30 PM,,,8929438864
Hampankatta,"Ground Floor, Premium Enclave, Light House Hill Road, Hampankatta, Hampankatta, Next To Jos Alukkas Showroom Opposite To Canara Bank, Mangaluru, Karnataka, 575001",Karnataka,11:00 AM to 09:00 PM,,,8929277874
Nagawara,"34, Sy No 39/1, Vidyasagar Bus Stop, Thanisandra Road Main, Dr Shivaram Karanth Nagar Post, Nagwara, Nagawara, Opposite Dhurudesh Honda Showroom, Bengaluru, Karnataka, 560077",Karnataka,11:00 AM to 09:30 PM,,,8447745515
Chamundipuram,"New No 2954/4, Plot No K 12/4, Khata No 38/2004, Chamundipuram Circle, Chamundipuram Circle, Next To More Market, Mysuru, Karnataka, 570008",Karnataka,11:00 AM to 09:00 PM,,,8588802291
Kanakapura,"Jr Plaza 6, Raghuvanahalli, Kanakapura Main Road, Metro Pillar No 217, Raghuvanahalli, Near Karnataka Bank, Bengaluru, Karnataka, 560062",Karnataka,11:00 AM to 09:30 PM,,,9643707383
Nagarbhavi 80ft Road,"Ground Floor Plot No 348/689, Nagarbhavi 80Ft Road, Vinayaka Layout, Nagarbhavi, Bengaluru, Karnataka, 560072",Karnataka,11:00 AM to 09:30 PM,,,8447847395
Flagship Store at Whitefield,"68/62, Labh Villa, Whitefield, Near Csi Memorial Church, Bengaluru, Karnataka, 560066",Karnataka,11:00 AM to 09:30 PM,,,7428891084
Nexus Mall,"Shop No 11A, 1St Floor, Nexus Mall, Mangladevi Temple Road, Pandeshwar, Nexus Mall, Mangaluru, Karnataka, 575001",Karnataka,11:00 AM to 09:00 PM,,,8585951403
Forum Mall Koramangala,"Unit No 10, Ground Floor, The Forum Mall, Koramangala, Bengaluru, Karnataka, 560095",Karnataka,11:00 AM to 09:30 PM,,,8377931402
Chikkamagaluru,"Ground Floor 199, Mg Road, Chikkolale, Chikkolale, Opposite Sri Vasavi Kannikaparameshwari Temple, Chikkamagaluru, Karnataka, 577101",Karnataka,11:00 AM to 09:00 PM,,,9870562563
Varthur,"Shop No 704, Ground Floor, Asn Signature, Varthur Road, Ramagondanahalli, Siddapura, Near Laughing Waters, Bengaluru, Karnataka, 560066",Karnataka,11:00 AM to 09:30 PM,,,9582601383
Anathanagar,"#1138, Ground Floor, 6Th Cross Road, Sri Anantha Nagar, Electronic City Phase 2, Near Ashirwadh Classic Apartment, Bengaluru, Karnataka, 560100",Karnataka,11:00 AM to 09:30 PM,,,9582381413
Vijay Nagar,"Hebbal 1St Stage, Jv Arcade, Hebbal, Near Surya Bakery Circle, Mysuru, Karnataka, 570016",Karnataka,11:00 AM to 09:00 PM,,,7065045161
Hoodi Circle,"Rajapalya, Itpl Main Road, Mahadevapura, Hoodi, Hoodi Circle, Bengaluru, Karnataka, 560048",Karnataka,11:00 AM to 09:30 PM,,,8447745874
Dattagalli,"N0 3082, Khata‚ Kt695/17/18, Vishwamanava Double Road, 3Rd Stage, Dattagalli, Mahamane Circle, Mahamane Circle, Near Bombatt Bhojana Hotel, Mysuru, Karnataka, 570024",Karnataka,11:00 AM to 09:00 PM,,,8929310911
Malleshwaram,"Shop No 17, Om Sri Mahaganapathi Complex, Margosa Road, Malleshwaram, Near Narayana Super Speciality Hospital, Bengaluru, Karnataka, 560003",Karnataka,11:00 AM to 09:30 PM,,,7428890050
CV Raman Nagar,"Shop No 54, Ground Floor, 11Th Cross, Kaggadasapura Rd, Cv Raman Nagar, Opposite Narayana Pu/Cbse College, Bengaluru, Karnataka, 560093",Karnataka,11:00 AM to 09:30 PM,,,7428890211
Kasturi Nagar,"Shop No 156, Svk Arcade, 2Nd Main Road, Kasturi Nagar, East Of Ngef Layout, Bengaluru, Karnataka, 560043",Karnataka,10:30 AM to 09:30 PM,,,7428890267
